{"type":"FeatureCollection","features":[{"type":"Feature","id":1,"geometry":{"type":"Point","coordinates":[32.25169,26.109237]},"properties":{"Name":"سد"}},{"type":"Feature","id":2,"geometry":{"type":"Point","coordinates":[33.412701,24.294927]},"properties":{"Name":"سد إعاقة م3"}},{"type":"Feature","id":3,"geometry":{"type":"Point","coordinates":[32.913792,24.262607]},"properties":{"Name":"سد حماية بوادي الاعقاب"}},{"type":"Feature","id":4,"geometry":{"type":"Point","coordinates":[33.401645,24.994514]},"properties":{"Name":"سد 1"}},{"type":"Feature","id":5,"geometry":{"type":"Point","coordinates":[33.529292,25.026921]},"properties":{"Name":"سد رقم 2"}},{"type":"Feature","id":6,"geometry":{"type":"Point","coordinates":[33.647966,25.05688]},"properties":{"Name":"سد رقم 1"}},{"type":"Feature","id":7,"geometry":{"type":"Point","coordinates":[33.344753,25.015081]},"properties":{"Name":"سد 2"}},{"type":"Feature","id":8,"geometry":{"type":"Point","coordinates":[33.177289,25.165765]},"properties":{"Name":"سد إعاقة م2_x000D_ سد إعاقة م2_x000D_ _x000D_ سد *"}},{"type":"Feature","id":9,"geometry":{"type":"Point","coordinates":[31.815495,26.097165]},"properties":{"Name":"سد رقم 2"}},{"type":"Feature","id":10,"geometry":{"type":"Point","coordinates":[31.817639,26.070901]},"properties":{"Name":"سد رقم 1"}},{"type":"Feature","id":11,"geometry":{"type":"Point","coordinates":[33.639992,24.347738]},"properties":{"Name":"سد إعاقة م3"}},{"type":"Feature","id":12,"geometry":{"type":"Point","coordinates":[33.705907,24.330388]},"properties":{"Name":"سد إعاقة 2"}},{"type":"Feature","id":13,"geometry":{"type":"Point","coordinates":[33.744175,25.213012]},"properties":{"Name":"سد إعاقة م 1"}},{"type":"Feature","id":14,"geometry":{"type":"Point","coordinates":[31.381714,27.126581]},"properties":{"Name":"سد م1 بوادى ايمو"}},{"type":"Feature","id":15,"geometry":{"type":"Point","coordinates":[31.377675,27.129011]},"properties":{"Name":"سد م2 بوادى ايمو"}},{"type":"Feature","id":16,"geometry":{"type":"Point","coordinates":[30.783759,28.130624]},"properties":{"Name":"سد م1"}},{"type":"Feature","id":17,"geometry":{"type":"Point","coordinates":[31.362594,27.125642]},"properties":{"Name":"سد م2 بوادى ايمو"}},{"type":"Feature","id":18,"geometry":{"type":"Point","coordinates":[30.784444,28.125278]},"properties":{"Name":"سد م2"}},{"type":"Feature","id":19,"geometry":{"type":"Point","coordinates":[30.966389,27.395278]},"properties":{"Name":"سد م1"}},{"type":"Feature","id":20,"geometry":{"type":"Point","coordinates":[30.967778,27.392778]},"properties":{"Name":"سد م2"}},{"type":"Feature","id":21,"geometry":{"type":"Point","coordinates":[30.967222,27.388333]},"properties":{"Name":"سد م3"}},{"type":"Feature","id":22,"geometry":{"type":"Point","coordinates":[31.759543,26.654885]},"properties":{"Name":"NULL"}},{"type":"Feature","id":23,"geometry":{"type":"Point","coordinates":[31.756644,26.652497]},"properties":{"Name":"NULL"}},{"type":"Feature","id":24,"geometry":{"type":"Point","coordinates":[32.195944,26.593708]},"properties":{"Name":"K1 سد"}},{"type":"Feature","id":25,"geometry":{"type":"Point","coordinates":[32.203606,26.563927]},"properties":{"Name":"K2 سد"}},{"type":"Feature","id":26,"geometry":{"type":"Point","coordinates":[32.208501,26.559096]},"properties":{"Name":"K3 سد"}},{"type":"Feature","id":27,"geometry":{"type":"Point","coordinates":[32.891389,24.175361]},"properties":{"Name":"NULL"}},{"type":"Feature","id":28,"geometry":{"type":"Point","coordinates":[32.888056,24.181472]},"properties":{"Name":"NULL"}},{"type":"Feature","id":29,"geometry":{"type":"Point","coordinates":[32.895728,24.164056]},"properties":{"Name":"NULL"}},{"type":"Feature","id":30,"geometry":{"type":"Point","coordinates":[32.888167,24.170325]},"properties":{"Name":"NULL"}},{"type":"Feature","id":31,"geometry":{"type":"Point","coordinates":[31.409943,29.834622]},"properties":{"Name":"بحيرة صناعية مدينة 15 مايو"}},{"type":"Feature","id":32,"geometry":{"type":"Point","coordinates":[31.397309,29.829581]},"properties":{"Name":"سد م2"}},{"type":"Feature","id":33,"geometry":{"type":"Point","coordinates":[31.430308,29.843192]},"properties":{"Name":"سد م1"}},{"type":"Feature","id":34,"geometry":{"type":"Point","coordinates":[31.442373,29.929843]},"properties":{"Name":"بحيرة صناعية ب2"}},{"type":"Feature","id":35,"geometry":{"type":"Point","coordinates":[31.354738,29.952919]},"properties":{"Name":"مخر سيل صناعي"}},{"type":"Feature","id":36,"geometry":{"type":"Point","coordinates":[31.417668,29.178735]},"properties":{"Name":"سد م3 بوادي دجلة"}},{"type":"Feature","id":37,"geometry":{"type":"Point","coordinates":[31.70587,26.913487]},"properties":{"Name":"سد م1"}},{"type":"Feature","id":38,"geometry":{"type":"Point","coordinates":[31.683458,26.914385]},"properties":{"Name":"سد م2"}},{"type":"Feature","id":39,"geometry":{"type":"Point","coordinates":[31.668586,26.907167]},"properties":{"Name":"NULL"}},{"type":"Feature","id":40,"geometry":{"type":"Point","coordinates":[31.565931,26.935092]},"properties":{"Name":"NULL"}},{"type":"Feature","id":41,"geometry":{"type":"Point","coordinates":[31.114919,27.577367]},"properties":{"Name":"سد م1"}},{"type":"Feature","id":42,"geometry":{"type":"Point","coordinates":[31.100859,27.561919]},"properties":{"Name":"سد م2"}},{"type":"Feature","id":43,"geometry":{"type":"Point","coordinates":[30.984258,27.515972]},"properties":{"Name":"سد م4"}},{"type":"Feature","id":44,"geometry":{"type":"Point","coordinates":[31.172136,27.448847]},"properties":{"Name":"سد م1"}},{"type":"Feature","id":45,"geometry":{"type":"Point","coordinates":[31.151147,27.426447]},"properties":{"Name":"سد م2"}},{"type":"Feature","id":46,"geometry":{"type":"Point","coordinates":[31.040806,27.375603]},"properties":{"Name":"سد م3"}},{"type":"Feature","id":47,"geometry":{"type":"Point","coordinates":[31.069058,27.356768]},"properties":{"Name":"سد م4"}},{"type":"Feature","id":48,"geometry":{"type":"Point","coordinates":[31.543333,27.308056]},"properties":{"Name":"سد م1 بوادي الأسيوطي"}},{"type":"Feature","id":49,"geometry":{"type":"Point","coordinates":[31.591667,27.355]},"properties":{"Name":"سد م2 بوادي الأسيوطي"}},{"type":"Feature","id":50,"geometry":{"type":"Point","coordinates":[31.540556,27.454722]},"properties":{"Name":"سد م3بوادي الأسيوطي"}},{"type":"Feature","id":51,"geometry":{"type":"Point","coordinates":[31.216961,27.36845]},"properties":{"Name":"NULL"}},{"type":"Feature","id":52,"geometry":{"type":"Point","coordinates":[31.219167,27.332222]},"properties":{"Name":"سد س1"}},{"type":"Feature","id":53,"geometry":{"type":"Point","coordinates":[31.242944,27.357375]},"properties":{"Name":"NULL"}},{"type":"Feature","id":54,"geometry":{"type":"Point","coordinates":[31.230814,27.348253]},"properties":{"Name":"NULL"}},{"type":"Feature","id":55,"geometry":{"type":"Point","coordinates":[31.879909,26.17156]},"properties":{"Name":"سد حماية الجير"}},{"type":"Feature","id":56,"geometry":{"type":"Point","coordinates":[31.360354,26.781966]},"properties":{"Name":"سد م6 وادى نزلة عمارة"}},{"type":"Feature","id":57,"geometry":{"type":"Point","coordinates":[31.221889,27.053142]},"properties":{"Name":"سد م3"}},{"type":"Feature","id":58,"geometry":{"type":"Point","coordinates":[31.205475,27.057042]},"properties":{"Name":"سد م1"}},{"type":"Feature","id":59,"geometry":{"type":"Point","coordinates":[31.217644,27.053872]},"properties":{"Name":"سد م2"}},{"type":"Feature","id":60,"geometry":{"type":"Point","coordinates":[31.284322,26.922911]},"properties":{"Name":"سد م3"}},{"type":"Feature","id":61,"geometry":{"type":"Point","coordinates":[31.278994,26.921722]},"properties":{"Name":"سد م2"}},{"type":"Feature","id":62,"geometry":{"type":"Point","coordinates":[32.189887,26.546472]},"properties":{"Name":"k4 سد"}},{"type":"Feature","id":63,"geometry":{"type":"Point","coordinates":[32.16889,26.530344]},"properties":{"Name":"K5 سد"}},{"type":"Feature","id":64,"geometry":{"type":"Point","coordinates":[32.120942,26.463735]},"properties":{"Name":"K6 سد"}},{"type":"Feature","id":65,"geometry":{"type":"Point","coordinates":[32.054628,26.357703]},"properties":{"Name":"K7 سد"}},{"type":"Feature","id":66,"geometry":{"type":"Point","coordinates":[31.392408,27.076069]},"properties":{"Name":"سد م2"}},{"type":"Feature","id":67,"geometry":{"type":"Point","coordinates":[31.395417,27.072683]},"properties":{"Name":"سد م1"}},{"type":"Feature","id":68,"geometry":{"type":"Point","coordinates":[31.615278,26.351389]},"properties":{"Name":"W2 سد"}},{"type":"Feature","id":69,"geometry":{"type":"Point","coordinates":[31.699893,26.273727]},"properties":{"Name":"W5 سد"}},{"type":"Feature","id":70,"geometry":{"type":"Point","coordinates":[31.52,26.926111]},"properties":{"Name":"سد م2"}},{"type":"Feature","id":71,"geometry":{"type":"Point","coordinates":[31.5275,26.928056]},"properties":{"Name":"سد م4"}},{"type":"Feature","id":72,"geometry":{"type":"Point","coordinates":[31.525278,26.9275]},"properties":{"Name":"سد م3"}},{"type":"Feature","id":73,"geometry":{"type":"Point","coordinates":[31.518333,26.917222]},"properties":{"Name":"سد م1"}},{"type":"Feature","id":74,"geometry":{"type":"Point","coordinates":[31.361589,26.779225]},"properties":{"Name":"سد م1 بوادي نزلة عمارة"}},{"type":"Feature","id":75,"geometry":{"type":"Point","coordinates":[31.360286,26.78206]},"properties":{"Name":"سد م3 بوادي نزلة عماره"}},{"type":"Feature","id":76,"geometry":{"type":"Point","coordinates":[31.357433,26.785686]},"properties":{"Name":"سد م4"}},{"type":"Feature","id":77,"geometry":{"type":"Point","coordinates":[31.358525,26.784525]},"properties":{"Name":"سد م5"}},{"type":"Feature","id":78,"geometry":{"type":"Point","coordinates":[32.233436,26.498279]},"properties":{"Name":"N1 سد"}},{"type":"Feature","id":79,"geometry":{"type":"Point","coordinates":[32.175359,26.396478]},"properties":{"Name":"N2 سد"}},{"type":"Feature","id":80,"geometry":{"type":"Point","coordinates":[32.139447,26.324693]},"properties":{"Name":"N3 سد"}},{"type":"Feature","id":81,"geometry":{"type":"Point","coordinates":[32.151061,26.318887]},"properties":{"Name":"N4 سد"}},{"type":"Feature","id":82,"geometry":{"type":"Point","coordinates":[31.339955,26.845382]},"properties":{"Name":"سد م1 الدوير"}},{"type":"Feature","id":83,"geometry":{"type":"Point","coordinates":[31.242075,27.019425]},"properties":{"Name":"سد1 بمنطقة البلايزة"}},{"type":"Feature","id":84,"geometry":{"type":"Point","coordinates":[31.243711,27.013489]},"properties":{"Name":"سد2 بمنطقة البلايزة"}},{"type":"Feature","id":85,"geometry":{"type":"Point","coordinates":[31.247222,29.223936]},"properties":{"Name":"مخر سيل غياضة الشرقية"}},{"type":"Feature","id":86,"geometry":{"type":"Point","coordinates":[30.979348,28.868841]},"properties":{"Name":"حاجز"}},{"type":"Feature","id":87,"geometry":{"type":"Point","coordinates":[31.232697,27.340515]},"properties":{"Name":"سد م1"}},{"type":"Feature","id":88,"geometry":{"type":"Point","coordinates":[31.231408,27.337916]},"properties":{"Name":"سد م2"}},{"type":"Feature","id":89,"geometry":{"type":"Point","coordinates":[31.227349,27.38764]},"properties":{"Name":"سد م5"}},{"type":"Feature","id":90,"geometry":{"type":"Point","coordinates":[31.388163,27.127079]},"properties":{"Name":"سد م3"}},{"type":"Feature","id":91,"geometry":{"type":"Point","coordinates":[31.000327,27.364266]},"properties":{"Name":"سد"}},{"type":"Feature","id":92,"geometry":{"type":"Point","coordinates":[32.341304,26.564871]},"properties":{"Name":"سد n5"}},{"type":"Feature","id":93,"geometry":{"type":"Point","coordinates":[32.417635,26.638384]},"properties":{"Name":"سد n6"}},{"type":"Feature","id":94,"geometry":{"type":"Point","coordinates":[31.189755,27.3884]},"properties":{"Name":"سد م3"}},{"type":"Feature","id":95,"geometry":{"type":"Point","coordinates":[31.285267,26.919569]},"properties":{"Name":"سد م4"}},{"type":"Feature","id":96,"geometry":{"type":"Point","coordinates":[31.274478,26.920667]},"properties":{"Name":"سد م3"}},{"type":"Feature","id":97,"geometry":{"type":"Point","coordinates":[32.889411,24.167745]},"properties":{"Name":"NULL"}},{"type":"Feature","id":98,"geometry":{"type":"Point","coordinates":[31.793952,26.620822]},"properties":{"Name":"سد  حماية"}},{"type":"Feature","id":99,"geometry":{"type":"Point","coordinates":[32.628098,25.760921]},"properties":{"Name":"سد/ حاجز"}},{"type":"Feature","id":100,"geometry":{"type":"Point","coordinates":[32.633846,25.766359]},"properties":{"Name":"سد/ حاجز"}},{"type":"Feature","id":101,"geometry":{"type":"Point","coordinates":[32.817986,25.790538]},"properties":{"Name":"حاجز"}},{"type":"Feature","id":102,"geometry":{"type":"Point","coordinates":[32.250267,26.107344]},"properties":{"Name":"حاجز"}},{"type":"Feature","id":103,"geometry":{"type":"Point","coordinates":[31.589608,26.757438]},"properties":{"Name":"حاجز ترابى"}},{"type":"Feature","id":104,"geometry":{"type":"Point","coordinates":[32.906307,24.143738]},"properties":{"Name":"NULL"}},{"type":"Feature","id":105,"geometry":{"type":"Point","coordinates":[32.817129,25.793374]},"properties":{"Name":"حاجز"}},{"type":"Feature","id":106,"geometry":{"type":"Point","coordinates":[30.78789,28.205717]},"properties":{"Name":"حاجز بالمنشى"}},{"type":"Feature","id":107,"geometry":{"type":"Point","coordinates":[31.374437,29.461707]},"properties":{"Name":"سد"}},{"type":"Feature","id":108,"geometry":{"type":"Point","coordinates":[31.396146,29.436117]},"properties":{"Name":"حاجز ترابي ح4"}},{"type":"Feature","id":109,"geometry":{"type":"Point","coordinates":[31.450113,29.449465]},"properties":{"Name":"حاجز ترابي ح2"}},{"type":"Feature","id":110,"geometry":{"type":"Point","coordinates":[31.409716,29.428952]},"properties":{"Name":"حاجز ترابي ح3"}},{"type":"Feature","id":111,"geometry":{"type":"Point","coordinates":[31.034234,28.67991]},"properties":{"Name":"بحيرة صناعية ب1"}},{"type":"Feature","id":112,"geometry":{"type":"Point","coordinates":[31.344858,29.392279]},"properties":{"Name":"حاجز ترابي ح3"}},{"type":"Feature","id":113,"geometry":{"type":"Point","coordinates":[31.386842,29.375584]},"properties":{"Name":"حاجز ترابي ح2"}},{"type":"Feature","id":114,"geometry":{"type":"Point","coordinates":[31.384299,29.367714]},"properties":{"Name":"حاجز ترابي ح1"}},{"type":"Feature","id":115,"geometry":{"type":"Point","coordinates":[31.417513,29.839463]},"properties":{"Name":"حاجز"}},{"type":"Feature","id":116,"geometry":{"type":"Point","coordinates":[31.421661,29.526961]},"properties":{"Name":"حاجز"}},{"type":"Feature","id":117,"geometry":{"type":"Point","coordinates":[31.447611,29.49954]},"properties":{"Name":"حاجز ترابي"}},{"type":"Feature","id":118,"geometry":{"type":"Point","coordinates":[31.422937,29.598127]},"properties":{"Name":"حاجز"}},{"type":"Feature","id":119,"geometry":{"type":"Point","coordinates":[31.425858,29.621244]},"properties":{"Name":"حاجز"}},{"type":"Feature","id":120,"geometry":{"type":"Point","coordinates":[31.419511,29.644203]},"properties":{"Name":"حاجز ترابي ح5"}},{"type":"Feature","id":121,"geometry":{"type":"Point","coordinates":[31.37971,29.955767]},"properties":{"Name":"حاجز"}},{"type":"Feature","id":122,"geometry":{"type":"Point","coordinates":[31.298937,29.272523]},"properties":{"Name":"سد م2 بوادي دجلة"}},{"type":"Feature","id":123,"geometry":{"type":"Point","coordinates":[31.371534,29.236764]},"properties":{"Name":"سد ركامي م1"}},{"type":"Feature","id":124,"geometry":{"type":"Point","coordinates":[30.774392,28.116056]},"properties":{"Name":"حاجز غمازة الكبرى"}},{"type":"Feature","id":125,"geometry":{"type":"Point","coordinates":[30.781087,28.108593]},"properties":{"Name":"مخر سيل المعصرة"}},{"type":"Feature","id":126,"geometry":{"type":"Point","coordinates":[30.962329,28.49447]},"properties":{"Name":"حاجز ترابي قرية الشرفا"}},{"type":"Feature","id":127,"geometry":{"type":"Point","coordinates":[30.928729,28.621101]},"properties":{"Name":"حاجز ترابي"}},{"type":"Feature","id":128,"geometry":{"type":"Point","coordinates":[31.167422,28.90086]},"properties":{"Name":"حاجز"}},{"type":"Feature","id":129,"geometry":{"type":"Point","coordinates":[31.192943,28.920154]},"properties":{"Name":"حاجز"}},{"type":"Feature","id":130,"geometry":{"type":"Point","coordinates":[31.16973,28.837385]},"properties":{"Name":"حاجز"}},{"type":"Feature","id":131,"geometry":{"type":"Point","coordinates":[31.243042,28.715043]},"properties":{"Name":"حاجز ترابي ح8"}},{"type":"Feature","id":132,"geometry":{"type":"Point","coordinates":[31.629063,28.829458]},"properties":{"Name":"حاجز ترابي ح7"}},{"type":"Feature","id":133,"geometry":{"type":"Point","coordinates":[31.611738,28.84474]},"properties":{"Name":"حاجز ترابي ح6"}},{"type":"Feature","id":134,"geometry":{"type":"Point","coordinates":[31.230379,28.759523]},"properties":{"Name":"حاجز ترابي ح5"}},{"type":"Feature","id":135,"geometry":{"type":"Point","coordinates":[31.590812,29.050163]},"properties":{"Name":"حاجز ترابي ح4"}},{"type":"Feature","id":136,"geometry":{"type":"Point","coordinates":[31.641071,26.898304]},"properties":{"Name":"حاجز حماية"}},{"type":"Feature","id":137,"geometry":{"type":"Point","coordinates":[31.226205,27.326124]},"properties":{"Name":"NULL"}},{"type":"Feature","id":138,"geometry":{"type":"Point","coordinates":[31.22385,27.346294]},"properties":{"Name":"حاجز حماية ج2-1"}},{"type":"Feature","id":139,"geometry":{"type":"Point","coordinates":[31.205294,27.348222]},"properties":{"Name":"حاجز حماية ج2-2"}},{"type":"Feature","id":140,"geometry":{"type":"Point","coordinates":[31.355298,26.78761]},"properties":{"Name":"حاجز"}},{"type":"Feature","id":141,"geometry":{"type":"Point","coordinates":[31.64945,26.457944]},"properties":{"Name":"حاجز إعاقة"}},{"type":"Feature","id":142,"geometry":{"type":"Point","coordinates":[30.899811,27.812661]},"properties":{"Name":"حاجز ترابي"}},{"type":"Feature","id":143,"geometry":{"type":"Point","coordinates":[31.365083,29.223841]},"properties":{"Name":"سد م1 بوادي دجلة"}},{"type":"Feature","id":144,"geometry":{"type":"Point","coordinates":[32.250955,26.108445]},"properties":{"Name":"حاجز"}},{"type":"Feature","id":145,"geometry":{"type":"Point","coordinates":[31.010537,28.854221]},"properties":{"Name":"حاجز"}},{"type":"Feature","id":146,"geometry":{"type":"Point","coordinates":[30.958886,28.871306]},"properties":{"Name":"حاجز"}},{"type":"Feature","id":147,"geometry":{"type":"Point","coordinates":[30.865323,28.398183]},"properties":{"Name":"حاجز"}},{"type":"Feature","id":148,"geometry":{"type":"Point","coordinates":[31.272594,29.244048]},"properties":{"Name":"حاجز"}},{"type":"Feature","id":149,"geometry":{"type":"Point","coordinates":[31.275875,29.210314]},"properties":{"Name":"حاجز"}},{"type":"Feature","id":150,"geometry":{"type":"Point","coordinates":[33.190711,25.16132]},"properties":{"Name":"جسر حماية وادي عبادي_x000D_"}},{"type":"Feature","id":151,"geometry":{"type":"Point","coordinates":[33.11431,25.088032]},"properties":{"Name":"جسر حماية وادي عبادي"}},{"type":"Feature","id":152,"geometry":{"type":"Point","coordinates":[33.252328,25.211068]},"properties":{"Name":"جسر حماية وادي عبادي"}},{"type":"Feature","id":153,"geometry":{"type":"Point","coordinates":[31.644135,26.741062]},"properties":{"Name":"جسر حماية"}},{"type":"Feature","id":154,"geometry":{"type":"Point","coordinates":[31.089444,27.562222]},"properties":{"Name":"جسر الحماية ج1"}},{"type":"Feature","id":155,"geometry":{"type":"Point","coordinates":[31.095169,27.5322]},"properties":{"Name":"جسر الحماية ج2"}},{"type":"Feature","id":156,"geometry":{"type":"Point","coordinates":[30.9725,27.517778]},"properties":{"Name":"جسر الحماية ج3"}},{"type":"Feature","id":157,"geometry":{"type":"Point","coordinates":[30.909822,27.588353]},"properties":{"Name":"جسر الحماية ج4"}},{"type":"Feature","id":158,"geometry":{"type":"Point","coordinates":[30.880278,27.959444]},"properties":{"Name":"جسر حماية"}},{"type":"Feature","id":159,"geometry":{"type":"Point","coordinates":[31.343137,27.120474]},"properties":{"Name":"جسر ترابي"}},{"type":"Feature","id":160,"geometry":{"type":"Point","coordinates":[32.877154,25.842487]},"properties":{"Name":"حاجز ترابي"}},{"type":"Feature","id":161,"geometry":{"type":"Point","coordinates":[33.72136,25.193288]},"properties":{"Name":"حاجز ترابي"}},{"type":"Feature","id":162,"geometry":{"type":"Point","coordinates":[33.606295,25.013711]},"properties":{"Name":"حاجز ترابي 2"}},{"type":"Feature","id":163,"geometry":{"type":"Point","coordinates":[33.328224,25.009448]},"properties":{"Name":"حاجز ترابي 2"}},{"type":"Feature","id":164,"geometry":{"type":"Point","coordinates":[33.271233,25.028921]},"properties":{"Name":"حاجز ترابي 2"}},{"type":"Feature","id":165,"geometry":{"type":"Point","coordinates":[33.240576,25.021484]},"properties":{"Name":"حاجز ترابي 3"}},{"type":"Feature","id":166,"geometry":{"type":"Point","coordinates":[33.07168,25.00288]},"properties":{"Name":"حاجز ترابي رقم 3"}},{"type":"Feature","id":167,"geometry":{"type":"Point","coordinates":[33.023819,24.996883]},"properties":{"Name":"حاجز ترابي رقم 4"}},{"type":"Feature","id":168,"geometry":{"type":"Point","coordinates":[33.18873,25.07582]},"properties":{"Name":"حاجز ترابي رقم 2"}},{"type":"Feature","id":169,"geometry":{"type":"Point","coordinates":[33.666661,25.033202]},"properties":{"Name":"حاجز ترابي 1"}},{"type":"Feature","id":170,"geometry":{"type":"Point","coordinates":[33.322094,24.992469]},"properties":{"Name":"حاجز ترابي 1"}},{"type":"Feature","id":171,"geometry":{"type":"Point","coordinates":[32.84427,25.713104]},"properties":{"Name":"حاجز ترابي ح2 بوادي بنات بري"}},{"type":"Feature","id":172,"geometry":{"type":"Point","coordinates":[32.879465,25.461237]},"properties":{"Name":"حاجز ترابي ح1 بوادي المدامود"}},{"type":"Feature","id":173,"geometry":{"type":"Point","coordinates":[31.976952,25.901127]},"properties":{"Name":"حاجز ترابي رقم 2"}},{"type":"Feature","id":174,"geometry":{"type":"Point","coordinates":[31.935541,25.958516]},"properties":{"Name":"حاجز ترابي رقم 1"}},{"type":"Feature","id":175,"geometry":{"type":"Point","coordinates":[32.278787,25.822165]},"properties":{"Name":"حاجز ترابي 2"}},{"type":"Feature","id":176,"geometry":{"type":"Point","coordinates":[32.778768,25.628157]},"properties":{"Name":"حاجز ترابي ح3 بوادي المدامود"}},{"type":"Feature","id":177,"geometry":{"type":"Point","coordinates":[33.509234,24.40558]},"properties":{"Name":"حاجز ترابي وادي خريط الرئيسي 1أ"}},{"type":"Feature","id":178,"geometry":{"type":"Point","coordinates":[32.877645,25.744897]},"properties":{"Name":"حاجز ترابي ح1 بوادي بنات بري"}},{"type":"Feature","id":179,"geometry":{"type":"Point","coordinates":[32.204904,25.831183]},"properties":{"Name":"حاجز ترابي 1"}},{"type":"Feature","id":180,"geometry":{"type":"Point","coordinates":[33.569994,25.122613]},"properties":{"Name":"حاجز ترابي"}},{"type":"Feature","id":181,"geometry":{"type":"Point","coordinates":[33.402743,25.00783]},"properties":{"Name":"حاجزترابي"}},{"type":"Feature","id":182,"geometry":{"type":"Point","coordinates":[32.942227,25.978684]},"properties":{"Name":"NULL"}},{"type":"Feature","id":183,"geometry":{"type":"Point","coordinates":[33.212704,25.053708]},"properties":{"Name":"حاجز ترابي رقم 1"}},{"type":"Feature","id":184,"geometry":{"type":"Point","coordinates":[33.721253,24.12943]},"properties":{"Name":"حاجز ترابي"}},{"type":"Feature","id":185,"geometry":{"type":"Point","coordinates":[32.814684,25.554494]},"properties":{"Name":"حاجز ترابي ح2 بوادي المدامود"}},{"type":"Feature","id":186,"geometry":{"type":"Point","coordinates":[30.883842,27.94489]},"properties":{"Name":"حاجز توجيه بوادى حسحاس"}},{"type":"Feature","id":187,"geometry":{"type":"Point","coordinates":[31.395313,29.825064]},"properties":{"Name":"حاجز توجيه"}},{"type":"Feature","id":188,"geometry":{"type":"Point","coordinates":[30.800398,28.249983]},"properties":{"Name":"مخر سيل"}},{"type":"Feature","id":189,"geometry":{"type":"Point","coordinates":[30.895594,27.812592]},"properties":{"Name":"حاجز توجيه"}},{"type":"Feature","id":190,"geometry":{"type":"Point","coordinates":[31.802433,26.619342]},"properties":{"Name":"حاجز توجيه"}},{"type":"Feature","id":191,"geometry":{"type":"Point","coordinates":[32.538083,25.466176]},"properties":{"Name":"سد*"}},{"type":"Feature","id":192,"geometry":{"type":"Point","coordinates":[32.532875,25.472116]},"properties":{"Name":"سد*"}},{"type":"Feature","id":193,"geometry":{"type":"Point","coordinates":[32.508853,25.53142]},"properties":{"Name":"سد*"}},{"type":"Feature","id":194,"geometry":{"type":"Point","coordinates":[32.5166,25.538874]},"properties":{"Name":"سد*"}},{"type":"Feature","id":195,"geometry":{"type":"Point","coordinates":[32.5405,25.539553]},"properties":{"Name":"سد*"}},{"type":"Feature","id":196,"geometry":{"type":"Point","coordinates":[32.526487,25.542139]},"properties":{"Name":"سد*"}},{"type":"Feature","id":197,"geometry":{"type":"Point","coordinates":[32.518111,25.542549]},"properties":{"Name":"سد*"}},{"type":"Feature","id":198,"geometry":{"type":"Point","coordinates":[30.847297,28.406637]},"properties":{"Name":"سد*"}},{"type":"Feature","id":199,"geometry":{"type":"Point","coordinates":[31.356784,29.802925]},"properties":{"Name":"سد*"}}]}