{"type":"FeatureCollection","features":[{"type":"Feature","id":1,"geometry":{"type":"Polygon","coordinates":[[[30.869326,27.968293],[30.869321,27.968325],[30.869227,27.968314],[30.869229,27.968284],[30.869326,27.968293]]]},"properties":{"Name":"بربخ","Shape_Length":0.0002556970741562919,"Shape_Area":3.0468014777846588e-09}},{"type":"Feature","id":2,"geometry":{"type":"Polygon","coordinates":[[[31.800305,26.619095],[31.800287,26.61903],[31.800417,26.618998],[31.800438,26.619042],[31.800305,26.619095]]]},"properties":{"Name":"بربخ 1","Shape_Length":0.0003927574898773858,"Shape_Area":7.970465133675258e-09}},{"type":"Feature","id":3,"geometry":{"type":"Polygon","coordinates":[[[31.798303,26.620563],[31.798362,26.620473],[31.79846,26.620125],[31.798552,26.620267],[31.798575,26.62034],[31.798498,26.620576],[31.798384,26.620771],[31.798329,26.620663],[31.798303,26.620563]]]},"properties":{"Name":"بربخ2","Shape_Length":0.001413855968914259,"Shape_Area":8.234138279450027e-08}},{"type":"Feature","id":4,"geometry":{"type":"Polygon","coordinates":[[[31.028532,28.686912],[31.029097,28.686332],[31.029154,28.686374],[31.028579,28.686942],[31.028532,28.686912]]]},"properties":{"Name":"بربخ","Shape_Length":0.0017452238486202845,"Shape_Area":5.058473607171621e-08}},{"type":"Feature","id":5,"geometry":{"type":"Polygon","coordinates":[[[30.921169,29.256358],[30.921626,29.255993],[30.921792,29.256103],[30.921348,29.256495],[30.921169,29.256358]]]},"properties":{"Name":"بربخ على مخر سيل","Shape_Length":0.001600806804521042,"Shape_Area":1.2066502849520391e-07}},{"type":"Feature","id":6,"geometry":{"type":"Polygon","coordinates":[[[30.910303,29.259793],[30.910315,29.259702],[30.91036,29.259703],[30.91035,29.259799],[30.910303,29.259793]]]},"properties":{"Name":"بربخ على مخر سيل","Shape_Length":0.00028127712719634495,"Shape_Area":4.3554298184955365e-09}},{"type":"Feature","id":7,"geometry":{"type":"Polygon","coordinates":[[[30.827505,29.117817],[30.827531,29.117787],[30.827684,29.117845],[30.827653,29.117883],[30.827505,29.117817]]]},"properties":{"Name":"بربخ على مخر سيل","Shape_Length":0.0004149012214948626,"Shape_Area":6.91565900772943e-09}},{"type":"Feature","id":8,"geometry":{"type":"Polygon","coordinates":[[[30.901412,29.249385],[30.901437,29.249428],[30.901335,29.249468],[30.901299,29.249425],[30.901412,29.249385]]]},"properties":{"Name":"بربخ على مخر سيل","Shape_Length":0.0003353021346640836,"Shape_Area":5.869295559714016e-09}},{"type":"Feature","id":9,"geometry":{"type":"Polygon","coordinates":[[[31.774235,26.619242],[31.774534,26.61878],[31.774672,26.61885],[31.774369,26.619314],[31.774235,26.619242]]]},"properties":{"Name":"هدار M1","Shape_Length":0.0014116321262690745,"Shape_Area":8.443971953967765e-08}},{"type":"Feature","id":10,"geometry":{"type":"Polygon","coordinates":[[[31.773461,26.618579],[31.773878,26.618197],[31.773998,26.618295],[31.773571,26.618675],[31.773461,26.618579]]]},"properties":{"Name":"هدار M2","Shape_Length":0.0014391129942192672,"Shape_Area":8.488388675985573e-08}},{"type":"Feature","id":11,"geometry":{"type":"Polygon","coordinates":[[[31.773165,26.617591],[31.773292,26.617688],[31.772871,26.618079],[31.772761,26.617976],[31.773165,26.617591]]]},"properties":{"Name":"هدار M3","Shape_Length":0.001443137619634329,"Shape_Area":8.718660383802052e-08}},{"type":"Feature","id":12,"geometry":{"type":"Polygon","coordinates":[[[31.771791,26.616926],[31.772315,26.616667],[31.772379,26.61675],[31.77184,26.617021],[31.771791,26.616926]]]},"properties":{"Name":"هدار M4","Shape_Length":0.0013991935204534238,"Shape_Area":6.225372858075947e-08}},{"type":"Feature","id":13,"geometry":{"type":"Polygon","coordinates":[[[31.772648,26.61534],[31.772551,26.615221],[31.772627,26.615165],[31.772754,26.615319],[31.772648,26.61534]]]},"properties":{"Name":"هدار M5","Shape_Length":0.0005566033602395263,"Shape_Area":1.677016900205319e-08}},{"type":"Feature","id":14,"geometry":{"type":"Polygon","coordinates":[[[31.776657,26.612862],[31.776562,26.612812],[31.776604,26.612773],[31.776697,26.612834],[31.776657,26.612862]]]},"properties":{"Name":"هدار M6","Shape_Length":0.00032450061070416934,"Shape_Area":5.391698547779814e-09}},{"type":"Feature","id":15,"geometry":{"type":"Polygon","coordinates":[[[31.777149,26.611156],[31.777138,26.611036],[31.77727,26.611014],[31.777291,26.611126],[31.777149,26.611156]]]},"properties":{"Name":"هدار M7","Shape_Length":0.0005132923570679636,"Shape_Area":1.629679915871906e-08}},{"type":"Feature","id":16,"geometry":{"type":"Polygon","coordinates":[[[31.776913,26.610106],[31.777057,26.610082],[31.777089,26.610223],[31.776949,26.610249],[31.776913,26.610106]]]},"properties":{"Name":"هدار M8","Shape_Length":0.0005808937337488942,"Shape_Area":2.1039613143662903e-08}},{"type":"Feature","id":17,"geometry":{"type":"Polygon","coordinates":[[[30.907928,28.743131],[30.908113,28.743095],[30.908095,28.743182],[30.908113,28.743268],[30.908188,28.743327],[30.907989,28.74338],[30.908027,28.743286],[30.908004,28.74321],[30.907928,28.743131]]]},"properties":{"Name":"كوبري","Shape_Length":0.0009586172160719416,"Shape_Area":3.1584495207508596e-08}},{"type":"Feature","id":18,"geometry":{"type":"Polygon","coordinates":[[[30.914239,28.743115],[30.914344,28.743121],[30.914326,28.743411],[30.914238,28.743411],[30.914239,28.743115]]]},"properties":{"Name":"كوبري","Shape_Length":0.0007807540820458881,"Shape_Area":2.836984298148753e-08}},{"type":"Feature","id":19,"geometry":{"type":"Polygon","coordinates":[[[30.917114,29.257459],[30.91723,29.257426],[30.917308,29.25761],[30.917194,29.257646],[30.917114,29.257459]]]},"properties":{"Name":"كوبري 2 فتحة","Shape_Length":0.0006445980760259588,"Shape_Area":2.4163955647672294e-08}},{"type":"Feature","id":20,"geometry":{"type":"Polygon","coordinates":[[[30.828658,29.11697],[30.828753,29.116903],[30.828884,29.117058],[30.828789,29.117122],[30.828658,29.11697]]]},"properties":{"Name":"كوبري 2 فتحة","Shape_Length":0.0006341792572811531,"Shape_Area":2.3145749999710233e-08}},{"type":"Feature","id":21,"geometry":{"type":"Polygon","coordinates":[[[30.898759,29.246365],[30.898865,29.246401],[30.898786,29.246573],[30.898686,29.24653],[30.898759,29.246365]]]},"properties":{"Name":"كوبري 2 فتحة","Shape_Length":0.0005913833232608,"Shape_Area":2.0392584194320637e-08}},{"type":"Feature","id":22,"geometry":{"type":"Polygon","coordinates":[[[31.284116,29.557071],[31.284266,29.557068],[31.284232,29.557259],[31.284095,29.557261],[31.284116,29.557071]]]},"properties":{"Name":"كوبري*","Shape_Length":0.0006709710440330095,"Shape_Area":2.716753466418432e-08}},{"type":"Feature","id":23,"geometry":{"type":"Polygon","coordinates":[[[31.291511,29.561347],[31.291582,29.561307],[31.291637,29.561367],[31.291578,29.56142],[31.291511,29.561347]]]},"properties":{"Name":"تغطية*","Shape_Length":0.0003411822849699963,"Shape_Area":7.155860902575259e-09}},{"type":"Feature","id":24,"geometry":{"type":"Polygon","coordinates":[[[31.294153,29.564471],[31.293858,29.564593],[31.293844,29.564565],[31.294126,29.564437],[31.294153,29.564471]]]},"properties":{"Name":"كوبري*","Shape_Length":0.0007043815765285889,"Shape_Area":1.1580324016555063e-08}},{"type":"Feature","id":25,"geometry":{"type":"Polygon","coordinates":[[[31.302792,29.568554],[31.302942,29.56856],[31.30294,29.568866],[31.302749,29.56884],[31.302792,29.568554]]]},"properties":{"Name":"كوبري*","Shape_Length":0.0009384075314708203,"Shape_Area":5.085143388219919e-08}},{"type":"Feature","id":26,"geometry":{"type":"Polygon","coordinates":[[[31.318707,29.566784],[31.318921,29.566762],[31.318933,29.567024],[31.318747,29.56705],[31.318707,29.566784]]]},"properties":{"Name":"كوبري*","Shape_Length":0.0009335403401000435,"Shape_Area":5.335006369055537e-08}},{"type":"Feature","id":27,"geometry":{"type":"Polygon","coordinates":[[[31.332023,29.56441],[31.332253,29.564401],[31.332277,29.564678],[31.332061,29.564688],[31.332023,29.56441]]]},"properties":{"Name":"كوبري*","Shape_Length":0.0010046577667477798,"Shape_Area":6.214682065439909e-08}},{"type":"Feature","id":28,"geometry":{"type":"Polygon","coordinates":[[[31.351457,29.559974],[31.351553,29.559865],[31.351999,29.559914],[31.351866,29.560045],[31.351457,29.559974]]]},"properties":{"Name":"كوبري*","Shape_Length":0.00119424630485671,"Shape_Area":5.79428723112347e-08}},{"type":"Feature","id":29,"geometry":{"type":"Polygon","coordinates":[[[31.135745,29.072103],[31.135928,29.071999],[31.136165,29.072125],[31.135978,29.072229],[31.135745,29.072103]]]},"properties":{"Name":"كوبري*","Shape_Length":0.000956829232031998,"Shape_Area":4.770446990265094e-08}},{"type":"Feature","id":30,"geometry":{"type":"Polygon","coordinates":[[[31.138557,29.070724],[31.13909,29.070467],[31.13918,29.070628],[31.138641,29.070875],[31.138557,29.070724]]]},"properties":{"Name":"تغطية*","Shape_Length":0.0015435229510817245,"Shape_Area":1.058595028577143e-07}},{"type":"Feature","id":31,"geometry":{"type":"Polygon","coordinates":[[[31.147502,29.064174],[31.147805,29.06392],[31.147955,29.064144],[31.14761,29.064391],[31.147502,29.064174]]]},"properties":{"Name":"تغطية*","Shape_Length":0.0013314156114941017,"Shape_Area":1.0368688602052787e-07}},{"type":"Feature","id":32,"geometry":{"type":"Polygon","coordinates":[[[31.019733,28.941684],[31.019819,28.941636],[31.019901,28.941729],[31.0198,28.941788],[31.019733,28.941684]]]},"properties":{"Name":"كوبري*","Shape_Length":0.0004630685875496124,"Shape_Area":1.3196853293634935e-08}},{"type":"Feature","id":33,"geometry":{"type":"Polygon","coordinates":[[[31.021065,28.941175],[31.021223,28.941105],[31.021307,28.941246],[31.021123,28.941337],[31.021065,28.941175]]]},"properties":{"Name":"كوبري*","Shape_Length":0.0007138084324902117,"Shape_Area":3.1567544041005244e-08}},{"type":"Feature","id":34,"geometry":{"type":"Polygon","coordinates":[[[31.023671,28.940249],[31.023828,28.940183],[31.023903,28.940337],[31.023729,28.940403],[31.023671,28.940249]]]},"properties":{"Name":"كوبري*","Shape_Length":0.0006924392725458496,"Shape_Area":2.989693282482574e-08}},{"type":"Feature","id":35,"geometry":{"type":"Polygon","coordinates":[[[31.060017,29.014025],[31.060056,29.014007],[31.060097,29.014073],[31.060051,29.014095],[31.060017,29.014025]]]},"properties":{"Name":"كوبري*","Shape_Length":0.0002486612661733766,"Shape_Area":3.6035293596880354e-09}},{"type":"Feature","id":36,"geometry":{"type":"Polygon","coordinates":[[[31.066695,29.010567],[31.066741,29.010548],[31.066807,29.010619],[31.066774,29.01064],[31.066695,29.010567]]]},"properties":{"Name":"كوبري*","Shape_Length":0.0002935581733043042,"Shape_Area":4.331012309873806e-09}},{"type":"Feature","id":37,"geometry":{"type":"Polygon","coordinates":[[[31.071284,29.008185],[31.071358,29.00815],[31.071385,29.008218],[31.071325,29.008259],[31.071284,29.008185]]]},"properties":{"Name":"كوبري*","Shape_Length":0.00031178069885694345,"Shape_Area":6.033790556023444e-09}},{"type":"Feature","id":38,"geometry":{"type":"Polygon","coordinates":[[[31.076346,29.005523],[31.076404,29.005454],[31.07655,29.005557],[31.07648,29.005625],[31.076346,29.005523]]]},"properties":{"Name":"تغطية*","Shape_Length":0.000536498955681279,"Shape_Area":1.623798875029517e-08}},{"type":"Feature","id":39,"geometry":{"type":"Polygon","coordinates":[[[31.081545,29.004856],[31.081648,29.004725],[31.081723,29.004777],[31.081637,29.004898],[31.081545,29.004856]]]},"properties":{"Name":"تغطية*","Shape_Length":0.0005082193149987216,"Shape_Area":1.501416087939666e-08}},{"type":"Feature","id":40,"geometry":{"type":"Polygon","coordinates":[[[31.197325,29.185113],[31.197379,29.185099],[31.197435,29.185256],[31.197377,29.18527],[31.197325,29.185113]]]},"properties":{"Name":"كوبري*","Shape_Length":0.0004475874951455485,"Shape_Area":9.545751969203626e-09}},{"type":"Feature","id":41,"geometry":{"type":"Polygon","coordinates":[[[31.204519,29.183037],[31.204665,29.182966],[31.204797,29.183093],[31.204644,29.183169],[31.204519,29.183037]]]},"properties":{"Name":"كوبري*","Shape_Length":0.000695826785405378,"Shape_Area":2.8616472322186148e-08}},{"type":"Feature","id":42,"geometry":{"type":"Polygon","coordinates":[[[30.933597,29.180353],[30.933653,29.180263],[30.933746,29.180324],[30.933709,29.180389],[30.933597,29.180353]]]},"properties":{"Name":"كوبري*","Shape_Length":0.0004092148376318991,"Shape_Area":1.0174592489420887e-08}},{"type":"Feature","id":43,"geometry":{"type":"Polygon","coordinates":[[[30.937905,29.176449],[30.937967,29.17638],[30.938088,29.176481],[30.938004,29.176541],[30.937905,29.176449]]]},"properties":{"Name":"كوبري*","Shape_Length":0.0004897110961349408,"Shape_Area":1.4190037744351067e-08}},{"type":"Feature","id":44,"geometry":{"type":"Polygon","coordinates":[[[30.940063,29.174452],[30.940162,29.174354],[30.940164,29.174359],[30.940268,29.17444],[30.940174,29.174532],[30.940063,29.174452]]]},"properties":{"Name":"كوبري*","Shape_Length":0.0005438560281919119,"Shape_Area":1.8096091067702756e-08}},{"type":"Feature","id":45,"geometry":{"type":"Polygon","coordinates":[[[31.31353,29.821764],[31.313945,29.821711],[31.313947,29.82198],[31.313528,29.821902],[31.31353,29.821764]]]},"properties":{"Name":"كوبري*","Shape_Length":0.0012524581446909805,"Shape_Area":8.505630388019355e-08}},{"type":"Feature","id":46,"geometry":{"type":"Polygon","coordinates":[[[31.319234,29.82044],[31.319344,29.820423],[31.319417,29.820601],[31.3193,29.820622],[31.319234,29.82044]]]},"properties":{"Name":"كوبري*","Shape_Length":0.0006173448493018937,"Shape_Area":2.1811797641340924e-08}},{"type":"Feature","id":47,"geometry":{"type":"Polygon","coordinates":[[[31.336003,29.813442],[31.336134,29.813338],[31.33641,29.813596],[31.336273,29.813709],[31.336003,29.813442]]]},"properties":{"Name":"كوبري*","Shape_Length":0.0011035898520043448,"Shape_Area":6.492854359574265e-08}},{"type":"Feature","id":48,"geometry":{"type":"Polygon","coordinates":[[[31.33765,29.812119],[31.337786,29.812019],[31.338134,29.812335],[31.337995,29.812428],[31.33765,29.812119]]]},"properties":{"Name":"كوبري*","Shape_Length":0.0012698422458769362,"Shape_Area":7.645615914867627e-08}},{"type":"Feature","id":49,"geometry":{"type":"Polygon","coordinates":[[[31.338811,29.811252],[31.338939,29.811135],[31.33927,29.811406],[31.339137,29.811523],[31.338811,29.811252]]]},"properties":{"Name":"كوبري*","Shape_Length":0.0012020995557633844,"Shape_Area":7.379450841171839e-08}},{"type":"Feature","id":50,"geometry":{"type":"Polygon","coordinates":[[[31.341164,29.80952],[31.341378,29.809474],[31.341401,29.809851],[31.341212,29.809918],[31.341164,29.80952]]]},"properties":{"Name":"كوبري*","Shape_Length":0.0011967520094373727,"Shape_Area":7.992688233565461e-08}},{"type":"Feature","id":51,"geometry":{"type":"Polygon","coordinates":[[[31.343974,29.808882],[31.344302,29.808795],[31.343966,29.809311],[31.343659,29.8094],[31.343974,29.808882]]]},"properties":{"Name":"كوبري*","Shape_Length":0.0018819103269204717,"Shape_Area":1.3564571484729737e-07}},{"type":"Feature","id":52,"geometry":{"type":"Polygon","coordinates":[[[31.350585,29.807609],[31.350573,29.807499],[31.350989,29.807483],[31.350996,29.807586],[31.350585,29.807609]]]},"properties":{"Name":"تغطية*","Shape_Length":0.0010420256919661483,"Shape_Area":4.4270849537799695e-08}},{"type":"Feature","id":53,"geometry":{"type":"Polygon","coordinates":[[[31.354526,29.80404],[31.356015,29.803486],[31.356554,29.803535],[31.355083,29.804051],[31.354526,29.80404]]]},"properties":{"Name":"تغطية*","Shape_Length":0.004246266809672243,"Shape_Area":3.3680159542413736e-07}},{"type":"Feature","id":54,"geometry":{"type":"Polygon","coordinates":[[[31.351878,29.805625],[31.352252,29.80569],[31.352197,29.805785],[31.351799,29.805723],[31.351878,29.805625]]]},"properties":{"Name":"كوبري*","Shape_Length":0.001017758879335487,"Shape_Area":4.1508267149623936e-08}},{"type":"Feature","id":55,"geometry":{"type":"Polygon","coordinates":[[[31.352969,29.80491],[31.353269,29.804714],[31.353109,29.805154],[31.352863,29.805306],[31.352969,29.80491]]]},"properties":{"Name":"كوبري*","Shape_Length":0.0015242763631404367,"Shape_Area":9.073959533557644e-08}},{"type":"Feature","id":56,"geometry":{"type":"Polygon","coordinates":[[[31.284326,29.70011],[31.284473,29.699898],[31.284531,29.699936],[31.284403,29.700151],[31.284326,29.70011]]]},"properties":{"Name":"كوبري*","Shape_Length":0.0006641964549486585,"Shape_Area":1.9803329571127467e-08}},{"type":"Feature","id":57,"geometry":{"type":"Polygon","coordinates":[[[31.287945,29.702044],[31.28804,29.701807],[31.288241,29.70192],[31.288145,29.702136],[31.287945,29.702044]]]},"properties":{"Name":"كوبري*","Shape_Length":0.0009430090647080573,"Shape_Area":5.5291749215931494e-08}},{"type":"Feature","id":58,"geometry":{"type":"Polygon","coordinates":[[[31.296916,29.711181],[31.297137,29.711097],[31.297167,29.711164],[31.296945,29.711246],[31.296916,29.711181]]]},"properties":{"Name":"كوبري*","Shape_Length":0.0006177027300022534,"Shape_Area":1.7029662399103905e-08}},{"type":"Feature","id":59,"geometry":{"type":"Polygon","coordinates":[[[31.299494,29.713076],[31.299547,29.712912],[31.299568,29.712917],[31.29952,29.713081],[31.299494,29.713076]]]},"properties":{"Name":"كوبري مشاة*","Shape_Length":0.00039064844381065257,"Shape_Area":4.044824791280902e-09}},{"type":"Feature","id":60,"geometry":{"type":"Polygon","coordinates":[[[31.302258,29.714298],[31.30237,29.714096],[31.302503,29.714151],[31.302375,29.714357],[31.302258,29.714298]]]},"properties":{"Name":"كوبري*","Shape_Length":0.0007470565228803868,"Shape_Area":3.221591129283945e-08}},{"type":"Feature","id":61,"geometry":{"type":"Polygon","coordinates":[[[31.319327,29.712336],[31.319473,29.71255],[31.319337,29.712601],[31.319245,29.712377],[31.319327,29.712336]]]},"properties":{"Name":"كوبري*","Shape_Length":0.0007365265281314425,"Shape_Area":2.9193647785886224e-08}},{"type":"Feature","id":62,"geometry":{"type":"Polygon","coordinates":[[[31.327817,29.710705],[31.327783,29.71043],[31.327881,29.710428],[31.327908,29.710698],[31.327817,29.710705]]]},"properties":{"Name":"كوبري*","Shape_Length":0.000737063433487874,"Shape_Area":2.5813286761581702e-08}},{"type":"Feature","id":63,"geometry":{"type":"Polygon","coordinates":[[[31.382037,29.713127],[31.382183,29.71294],[31.382269,29.712974],[31.382109,29.713166],[31.382037,29.713127]]]},"properties":{"Name":"كوبري*","Shape_Length":0.0006613402586286481,"Shape_Area":2.054351411706776e-08}},{"type":"Feature","id":64,"geometry":{"type":"Polygon","coordinates":[[[31.1723,27.123016],[31.172393,27.122995],[31.172425,27.123089],[31.17234,27.123107],[31.1723,27.123016]]]},"properties":{"Name":"كوبري*","Shape_Length":0.0003809126527864314,"Shape_Area":8.936015036087794e-09}},{"type":"Feature","id":65,"geometry":{"type":"Polygon","coordinates":[[[31.16941,27.124095],[31.169363,27.123978],[31.169472,27.123952],[31.169517,27.124056],[31.16941,27.124095]]]},"properties":{"Name":"كوبري*","Shape_Length":0.0004648281991699732,"Shape_Area":1.3405084265812963e-08}},{"type":"Feature","id":66,"geometry":{"type":"Polygon","coordinates":[[[31.169032,27.124221],[31.169004,27.124092],[31.169175,27.124037],[31.169243,27.124156],[31.169032,27.124221]]]},"properties":{"Name":"كوبري*","Shape_Length":0.0006702383928905343,"Shape_Area":2.6636259128770688e-08}},{"type":"Feature","id":67,"geometry":{"type":"Polygon","coordinates":[[[31.167192,27.12518],[31.167177,27.125186],[31.167021,27.12529],[31.167042,27.125115],[31.167175,27.125063],[31.167192,27.12518]]]},"properties":{"Name":"كوبري*","Shape_Length":0.0006394744064494124,"Shape_Area":2.1617046209740216e-08}},{"type":"Feature","id":68,"geometry":{"type":"Polygon","coordinates":[[[31.180447,27.132735],[31.180552,27.132473],[31.180662,27.132511],[31.180554,27.132768],[31.180447,27.132735]]]},"properties":{"Name":"كوبري*","Shape_Length":0.0007881988695428206,"Shape_Area":3.177952775944506e-08}},{"type":"Feature","id":69,"geometry":{"type":"Polygon","coordinates":[[[31.169184,27.135881],[31.16943,27.135786],[31.169473,27.135769],[31.169507,27.135726],[31.169566,27.135668],[31.169602,27.135626],[31.169607,27.135617],[31.169664,27.135638],[31.169658,27.13568],[31.169634,27.13573],[31.169585,27.135821],[31.169567,27.135847],[31.169536,27.135892],[31.169502,27.135926],[31.169422,27.135993],[31.169306,27.136086],[31.16919,27.13613],[31.169184,27.135881]]]},"properties":{"Name":"هدار*","Shape_Length":0.0015346432499067687,"Shape_Area":9.642461439150802e-08}},{"type":"Feature","id":70,"geometry":{"type":"Polygon","coordinates":[[[31.047403,28.979456],[31.047217,28.979163],[31.047289,28.979119],[31.047495,28.979393],[31.047403,28.979456]]]},"properties":{"Name":"كوبري*","Shape_Length":0.0008872217125925195,"Shape_Area":3.389343189869165e-08}},{"type":"Feature","id":71,"geometry":{"type":"Polygon","coordinates":[[[31.054917,28.976012],[31.05507,28.975944],[31.055252,28.976233],[31.055104,28.97631],[31.054917,28.976012]]]},"properties":{"Name":"كوبري*","Shape_Length":0.0010277691832794003,"Shape_Area":5.759554252840751e-08}},{"type":"Feature","id":72,"geometry":{"type":"Polygon","coordinates":[[[31.230292,29.252062],[31.230273,29.251946],[31.230339,29.25195],[31.230336,29.252062],[31.230292,29.252062]]]},"properties":{"Name":"كوبري*","Shape_Length":0.0003397606933614795,"Shape_Area":6.267286698238954e-09}},{"type":"Feature","id":73,"geometry":{"type":"Polygon","coordinates":[[[31.232188,29.252051],[31.232182,29.251959],[31.232245,29.251954],[31.232257,29.252052],[31.232188,29.252051]]]},"properties":{"Name":"كوبري*","Shape_Length":0.00032189310907706375,"Shape_Area":6.2370855236592505e-09}},{"type":"Feature","id":74,"geometry":{"type":"Polygon","coordinates":[[[31.23487,29.251672],[31.235018,29.251682],[31.234999,29.251753],[31.234841,29.251755],[31.23487,29.251672]]]},"properties":{"Name":"تغطية*","Shape_Length":0.00046646332857170714,"Shape_Area":1.1790146896871807e-08}},{"type":"Feature","id":75,"geometry":{"type":"Polygon","coordinates":[[[31.237461,29.250036],[31.237499,29.250033],[31.237498,29.250064],[31.237471,29.25007],[31.237461,29.250036]]]},"properties":{"Name":"كوبري*","Shape_Length":0.00013341728969097497,"Shape_Area":1.0968272968000725e-09}},{"type":"Feature","id":76,"geometry":{"type":"Polygon","coordinates":[[[31.237151,29.251298],[31.23723,29.251226],[31.237269,29.251257],[31.237213,29.251328],[31.237151,29.251298]]]},"properties":{"Name":"كوبري*","Shape_Length":0.0003161841390925475,"Shape_Area":5.6831152834627445e-09}},{"type":"Feature","id":77,"geometry":{"type":"Polygon","coordinates":[[[31.290883,29.513409],[31.291007,29.513382],[31.29108,29.513626],[31.290925,29.513649],[31.290883,29.513409]]]},"properties":{"Name":"كوبري*","Shape_Length":0.0007808061429267234,"Shape_Area":3.507239625546803e-08}},{"type":"Feature","id":78,"geometry":{"type":"Polygon","coordinates":[[[31.305495,29.515844],[31.305535,29.515568],[31.305705,29.515578],[31.305692,29.515862],[31.305495,29.515844]]]},"properties":{"Name":"كوبري*","Shape_Length":0.0009320339950612214,"Shape_Area":5.1829204803705226e-08}},{"type":"Feature","id":79,"geometry":{"type":"Polygon","coordinates":[[[31.318006,29.520671],[31.318083,29.520439],[31.318243,29.520496],[31.318148,29.520719],[31.318006,29.520671]]]},"properties":{"Name":"كوبري*","Shape_Length":0.0008072633835689918,"Shape_Area":3.8909179642202185e-08}},{"type":"Feature","id":80,"geometry":{"type":"Polygon","coordinates":[[[31.337536,29.525217],[31.337682,29.525007],[31.337829,29.525083],[31.337645,29.525269],[31.337536,29.525217]]]},"properties":{"Name":"كوبري*","Shape_Length":0.0008046683502256912,"Shape_Area":3.60266539475168e-08}},{"type":"Feature","id":81,"geometry":{"type":"Polygon","coordinates":[[[31.340586,29.524245],[31.340747,29.524031],[31.340907,29.524027],[31.340749,29.524248],[31.340586,29.524245]]]},"properties":{"Name":"كوبري*","Shape_Length":0.0008623912203865305,"Shape_Area":3.495667752849506e-08}},{"type":"Feature","id":82,"geometry":{"type":"Polygon","coordinates":[[[31.240845,29.382268],[31.240813,29.382077],[31.240959,29.382054],[31.240982,29.382246],[31.240845,29.382268]]]},"properties":{"Name":"كوبري*","Shape_Length":0.0006729319636644953,"Shape_Area":2.766784857722254e-08}},{"type":"Feature","id":83,"geometry":{"type":"Polygon","coordinates":[[[31.246148,29.381456],[31.246142,29.381235],[31.246274,29.381216],[31.246301,29.381409],[31.246148,29.381456]]]},"properties":{"Name":"كوبري*","Shape_Length":0.0007096774853618002,"Shape_Area":3.009585826271766e-08}},{"type":"Feature","id":84,"geometry":{"type":"Polygon","coordinates":[[[31.252074,29.395597],[31.252094,29.395387],[31.252177,29.395376],[31.252151,29.395602],[31.252074,29.395597]]]},"properties":{"Name":"كوبري*","Shape_Length":0.0005992263431466527,"Shape_Area":1.742017920886894e-08}},{"type":"Feature","id":85,"geometry":{"type":"Polygon","coordinates":[[[31.265374,29.389771],[31.265724,29.389616],[31.2659,29.389658],[31.265635,29.389768],[31.265374,29.389771]]]},"properties":{"Name":"كوبري*","Shape_Length":0.0011104648709365458,"Shape_Area":3.4821562342990936e-08}},{"type":"Feature","id":86,"geometry":{"type":"Polygon","coordinates":[[[31.271686,29.391648],[31.271762,29.391502],[31.271872,29.391529],[31.271812,29.391683],[31.271686,29.391648]]]},"properties":{"Name":"كوبري*","Shape_Length":0.0005746918881643039,"Shape_Area":1.98622115440302e-08}},{"type":"Feature","id":87,"geometry":{"type":"Polygon","coordinates":[[[31.307043,29.403066],[31.307106,29.402898],[31.307232,29.402937],[31.307153,29.403091],[31.307043,29.403066]]]},"properties":{"Name":"كوبري*","Shape_Length":0.0005973748295688173,"Shape_Area":2.125523824473366e-08}},{"type":"Feature","id":88,"geometry":{"type":"Polygon","coordinates":[[[31.265714,29.495677],[31.265839,29.495621],[31.265908,29.495697],[31.265789,29.495781],[31.265714,29.495677]]]},"properties":{"Name":"كوبري*","Shape_Length":0.0005153451462408484,"Shape_Area":1.614285644613412e-08}},{"type":"Feature","id":89,"geometry":{"type":"Polygon","coordinates":[[[31.27186,29.495034],[31.27181,29.494895],[31.271885,29.49486],[31.271959,29.494993],[31.27186,29.495034]]]},"properties":{"Name":"كوبري*","Shape_Length":0.0004896553667901934,"Shape_Area":1.4169224353221853e-08}},{"type":"Feature","id":90,"geometry":{"type":"Polygon","coordinates":[[[31.27522,29.494894],[31.275241,29.494705],[31.275363,29.494701],[31.275368,29.494905],[31.27522,29.494894]]]},"properties":{"Name":"كوبري*","Shape_Length":0.0006656426910234477,"Shape_Area":2.664707045835494e-08}},{"type":"Feature","id":91,"geometry":{"type":"Polygon","coordinates":[[[31.283861,29.49233],[31.283814,29.492127],[31.283937,29.492082],[31.283984,29.492306],[31.283861,29.49233]]]},"properties":{"Name":"كوبري*","Shape_Length":0.000692057086984433,"Shape_Area":2.774085048766758e-08}},{"type":"Feature","id":92,"geometry":{"type":"Polygon","coordinates":[[[31.294233,29.480248],[31.294144,29.480114],[31.294256,29.48005],[31.294355,29.480192],[31.294233,29.480248]]]},"properties":{"Name":"كوبري*","Shape_Length":0.0005963301061413465,"Shape_Area":2.172309088983016e-08}},{"type":"Feature","id":93,"geometry":{"type":"Polygon","coordinates":[[[31.313312,29.470532],[31.313386,29.470503],[31.313451,29.470684],[31.313369,29.470713],[31.313312,29.470532]]]},"properties":{"Name":"كوبري*","Shape_Length":0.0005471446983300384,"Shape_Area":1.5779193273177424e-08}},{"type":"Feature","id":94,"geometry":{"type":"Polygon","coordinates":[[[31.340582,29.46766],[31.3406,29.467367],[31.340721,29.467358],[31.340794,29.467697],[31.340582,29.46766]]]},"properties":{"Name":"كوبري*","Shape_Length":0.0009761085136773456,"Shape_Area":5.2175389152047765e-08}},{"type":"Feature","id":95,"geometry":{"type":"Polygon","coordinates":[[[30.757193,28.229673],[30.757214,28.229553],[30.757311,28.229566],[30.757279,28.229693],[30.757193,28.229673]]]},"properties":{"Name":"كوبري*","Shape_Length":0.0004388525908521802,"Shape_Area":1.1725893207313452e-08}},{"type":"Feature","id":96,"geometry":{"type":"Polygon","coordinates":[[[30.759551,28.229252],[30.759526,28.229174],[30.75958,28.22917],[30.759613,28.229249],[30.759551,28.229252]]]},"properties":{"Name":"كوبري*","Shape_Length":0.0002841024812649684,"Shape_Area":4.666268977696603e-09}},{"type":"Feature","id":97,"geometry":{"type":"Polygon","coordinates":[[[30.763076,28.231],[30.763132,28.230942],[30.763205,28.230988],[30.763148,28.231047],[30.763076,28.231]]]},"properties":{"Name":"كوبري*","Shape_Length":0.00033603759537887974,"Shape_Area":6.909132996355805e-09}},{"type":"Feature","id":98,"geometry":{"type":"Polygon","coordinates":[[[30.767961,28.23239],[30.767969,28.232291],[30.768063,28.232293],[30.768066,28.232393],[30.767961,28.23239]]]},"properties":{"Name":"كوبري*","Shape_Length":0.0003994132936071383,"Shape_Area":9.95250308798228e-09}},{"type":"Feature","id":99,"geometry":{"type":"Polygon","coordinates":[[[31.772192,26.606788],[31.772336,26.606628],[31.772427,26.606673],[31.772293,26.606848],[31.772192,26.606788]]]},"properties":{"Name":"كوبري*","Shape_Length":0.0006549819061094021,"Shape_Area":2.3418831820394216e-08}},{"type":"Feature","id":100,"geometry":{"type":"Polygon","coordinates":[[[31.776062,26.608879],[31.776227,26.608688],[31.776351,26.608791],[31.776196,26.60897],[31.776062,26.608879]]]},"properties":{"Name":"كوبري*","Shape_Length":0.0008133030287947264,"Shape_Area":3.947056381285706e-08}},{"type":"Feature","id":101,"geometry":{"type":"Polygon","coordinates":[[[31.776988,26.612022],[31.777273,26.612071],[31.777218,26.612231],[31.776941,26.612112],[31.776988,26.612022]]]},"properties":{"Name":"كوبري*","Shape_Length":0.0008617849994801731,"Shape_Area":3.9510449094732895e-08}},{"type":"Feature","id":102,"geometry":{"type":"Polygon","coordinates":[[[31.388132,29.810567],[31.388705,29.810867],[31.388673,29.811044],[31.388167,29.810764],[31.388132,29.810567]]]},"properties":{"Name":"كوبري*","Shape_Length":0.0016066791491658823,"Shape_Area":1.0079117303475957e-07}},{"type":"Feature","id":103,"geometry":{"type":"Polygon","coordinates":[[[31.389031,29.817469],[31.389886,29.817053],[31.389981,29.817192],[31.389069,29.817668],[31.389031,29.817469]]]},"properties":{"Name":"كوبري*","Shape_Length":0.0023496292401968956,"Shape_Area":1.7879663285504326e-07}},{"type":"Feature","id":104,"geometry":{"type":"Polygon","coordinates":[[[31.395781,29.826795],[31.396022,29.827534],[31.395667,29.827529],[31.39547,29.826749],[31.395781,29.826795]]]},"properties":{"Name":"تغطية*","Shape_Length":0.0022500347307072947,"Shape_Area":2.4710788578795605e-07}}]}