{"type":"FeatureCollection","features":[{"type":"Feature","id":1,"geometry":{"type":"Point","coordinates":[30.869212,27.968292]},"properties":{"Name":"بربخ"}},{"type":"Feature","id":2,"geometry":{"type":"Point","coordinates":[31.800338,26.619034]},"properties":{"Name":"بربخ 1"}},{"type":"Feature","id":3,"geometry":{"type":"Point","coordinates":[31.798344,26.620607]},"properties":{"Name":"بربخ 2"}},{"type":"Feature","id":4,"geometry":{"type":"Point","coordinates":[31.029169,28.686271]},"properties":{"Name":"بربخ"}},{"type":"Feature","id":5,"geometry":{"type":"Point","coordinates":[30.921747,29.256058]},"properties":{"Name":"بربخ على مخر سيل"}},{"type":"Feature","id":6,"geometry":{"type":"Point","coordinates":[30.910381,29.259756]},"properties":{"Name":"بربخ على مخر سيل"}},{"type":"Feature","id":7,"geometry":{"type":"Point","coordinates":[30.827619,29.117822]},"properties":{"Name":"بربخ على مخر سيل"}},{"type":"Feature","id":8,"geometry":{"type":"Point","coordinates":[30.901344,29.249403]},"properties":{"Name":"بربخ على مخر سيل"}},{"type":"Feature","id":9,"geometry":{"type":"Point","coordinates":[31.77449,26.618965]},"properties":{"Name":"هدار M1"}},{"type":"Feature","id":10,"geometry":{"type":"Point","coordinates":[31.773802,26.618332]},"properties":{"Name":"هدار M2"}},{"type":"Feature","id":11,"geometry":{"type":"Point","coordinates":[31.773082,26.617755]},"properties":{"Name":"هدار M3"}},{"type":"Feature","id":12,"geometry":{"type":"Point","coordinates":[31.772134,26.616798]},"properties":{"Name":"هدار M4"}},{"type":"Feature","id":13,"geometry":{"type":"Point","coordinates":[31.772686,26.615235]},"properties":{"Name":"هدار M5"}},{"type":"Feature","id":14,"geometry":{"type":"Point","coordinates":[31.77663,26.612801]},"properties":{"Name":"هدار M6"}},{"type":"Feature","id":15,"geometry":{"type":"Point","coordinates":[31.777189,26.611122]},"properties":{"Name":"هدار M7"}},{"type":"Feature","id":16,"geometry":{"type":"Point","coordinates":[31.776967,26.610104]},"properties":{"Name":"هدار M8"}},{"type":"Feature","id":17,"geometry":{"type":"Point","coordinates":[30.908022,28.743192]},"properties":{"Name":"كوبري"}},{"type":"Feature","id":18,"geometry":{"type":"Point","coordinates":[30.9143,28.743358]},"properties":{"Name":"كوبري"}},{"type":"Feature","id":19,"geometry":{"type":"Point","coordinates":[30.917208,29.257556]},"properties":{"Name":"كوبري 2 فتحة"}},{"type":"Feature","id":20,"geometry":{"type":"Point","coordinates":[30.828769,29.117014]},"properties":{"Name":"كوبري 2 فتحة"}},{"type":"Feature","id":21,"geometry":{"type":"Point","coordinates":[30.898775,29.246467]},"properties":{"Name":"كوبري 2 فتحة"}},{"type":"Feature","id":22,"geometry":{"type":"Point","coordinates":[31.284192,29.557137]},"properties":{"Name":"كوبري*"}},{"type":"Feature","id":23,"geometry":{"type":"Point","coordinates":[31.29156,29.561331]},"properties":{"Name":"تغطية*"}},{"type":"Feature","id":24,"geometry":{"type":"Point","coordinates":[31.293987,29.564508]},"properties":{"Name":"كوبري*"}},{"type":"Feature","id":25,"geometry":{"type":"Point","coordinates":[31.302853,29.568671]},"properties":{"Name":"كوبري*"}},{"type":"Feature","id":26,"geometry":{"type":"Point","coordinates":[31.318827,29.566906]},"properties":{"Name":"كوبري*"}},{"type":"Feature","id":27,"geometry":{"type":"Point","coordinates":[31.332143,29.564521]},"properties":{"Name":"كوبري*"}},{"type":"Feature","id":28,"geometry":{"type":"Point","coordinates":[31.351716,29.559933]},"properties":{"Name":"كوبري*"}},{"type":"Feature","id":29,"geometry":{"type":"Point","coordinates":[31.135971,29.072085]},"properties":{"Name":"كوبري*"}},{"type":"Feature","id":30,"geometry":{"type":"Point","coordinates":[31.138831,29.070638]},"properties":{"Name":"تغطية*"}},{"type":"Feature","id":31,"geometry":{"type":"Point","coordinates":[31.147719,29.064141]},"properties":{"Name":"تغطية*"}},{"type":"Feature","id":32,"geometry":{"type":"Point","coordinates":[31.019817,28.941696]},"properties":{"Name":"كوبري*"}},{"type":"Feature","id":33,"geometry":{"type":"Point","coordinates":[31.021169,28.941199]},"properties":{"Name":"كوبري*"}},{"type":"Feature","id":34,"geometry":{"type":"Point","coordinates":[31.0238,28.940272]},"properties":{"Name":"كوبري*"}},{"type":"Feature","id":35,"geometry":{"type":"Point","coordinates":[31.060056,29.014031]},"properties":{"Name":"كوبري*"}},{"type":"Feature","id":36,"geometry":{"type":"Point","coordinates":[31.066757,29.010583]},"properties":{"Name":"كوبري*"}},{"type":"Feature","id":37,"geometry":{"type":"Point","coordinates":[31.071339,29.008191]},"properties":{"Name":"كوبري*"}},{"type":"Feature","id":38,"geometry":{"type":"Point","coordinates":[31.076439,29.005528]},"properties":{"Name":"تغطية*"}},{"type":"Feature","id":39,"geometry":{"type":"Point","coordinates":[31.081635,29.004802]},"properties":{"Name":"تغطية*"}},{"type":"Feature","id":40,"geometry":{"type":"Point","coordinates":[30.847707,28.406179]},"properties":{"Name":"بربخ*"}},{"type":"Feature","id":41,"geometry":{"type":"Point","coordinates":[31.19738,29.185158]},"properties":{"Name":"كوبري*"}},{"type":"Feature","id":42,"geometry":{"type":"Point","coordinates":[31.204679,29.183064]},"properties":{"Name":"كوبري*"}},{"type":"Feature","id":43,"geometry":{"type":"Point","coordinates":[30.933683,29.180315]},"properties":{"Name":"كوبري*"}},{"type":"Feature","id":44,"geometry":{"type":"Point","coordinates":[30.937982,29.17645]},"properties":{"Name":"كوبري*"}},{"type":"Feature","id":45,"geometry":{"type":"Point","coordinates":[30.940169,29.17443]},"properties":{"Name":"كوبري*"}},{"type":"Feature","id":46,"geometry":{"type":"Point","coordinates":[31.313711,29.8218]},"properties":{"Name":"كوبري*"}},{"type":"Feature","id":47,"geometry":{"type":"Point","coordinates":[31.319324,29.820511]},"properties":{"Name":"كوبري*"}},{"type":"Feature","id":48,"geometry":{"type":"Point","coordinates":[31.336205,29.813508]},"properties":{"Name":"كوبري*"}},{"type":"Feature","id":49,"geometry":{"type":"Point","coordinates":[31.337855,29.812199]},"properties":{"Name":"كوبري*"}},{"type":"Feature","id":50,"geometry":{"type":"Point","coordinates":[31.339084,29.811337]},"properties":{"Name":"كوبري*"}},{"type":"Feature","id":51,"geometry":{"type":"Point","coordinates":[31.341295,29.809666]},"properties":{"Name":"كوبري*"}},{"type":"Feature","id":52,"geometry":{"type":"Point","coordinates":[31.343984,29.809078]},"properties":{"Name":"كوبري*"}},{"type":"Feature","id":53,"geometry":{"type":"Point","coordinates":[31.350818,29.807534]},"properties":{"Name":"تغطية*"}},{"type":"Feature","id":54,"geometry":{"type":"Point","coordinates":[31.355634,29.803841]},"properties":{"Name":"تغيطة*"}},{"type":"Feature","id":55,"geometry":{"type":"Point","coordinates":[31.351985,29.80569]},"properties":{"Name":"كوبري*"}},{"type":"Feature","id":56,"geometry":{"type":"Point","coordinates":[31.353077,29.804978]},"properties":{"Name":"كوبري*"}},{"type":"Feature","id":57,"geometry":{"type":"Point","coordinates":[31.284422,29.700005]},"properties":{"Name":"كوبري*"}},{"type":"Feature","id":58,"geometry":{"type":"Point","coordinates":[31.2881,29.701959]},"properties":{"Name":"كوبري*"}},{"type":"Feature","id":59,"geometry":{"type":"Point","coordinates":[31.297028,29.711161]},"properties":{"Name":"كوبري*"}},{"type":"Feature","id":60,"geometry":{"type":"Point","coordinates":[31.299529,29.712988]},"properties":{"Name":"كوبري مشاة*"}},{"type":"Feature","id":61,"geometry":{"type":"Point","coordinates":[31.302364,29.71423]},"properties":{"Name":"كوبري*"}},{"type":"Feature","id":62,"geometry":{"type":"Point","coordinates":[31.319345,29.712431]},"properties":{"Name":"كوبري*"}},{"type":"Feature","id":63,"geometry":{"type":"Point","coordinates":[31.327832,29.710554]},"properties":{"Name":"كوبري*"}},{"type":"Feature","id":64,"geometry":{"type":"Point","coordinates":[31.382152,29.713026]},"properties":{"Name":"كوبري*"}},{"type":"Feature","id":65,"geometry":{"type":"Point","coordinates":[31.172358,27.123037]},"properties":{"Name":"كوبري*"}},{"type":"Feature","id":66,"geometry":{"type":"Point","coordinates":[31.169435,27.124016]},"properties":{"Name":"كوبري*"}},{"type":"Feature","id":67,"geometry":{"type":"Point","coordinates":[31.169102,27.124121]},"properties":{"Name":"كوبري*"}},{"type":"Feature","id":68,"geometry":{"type":"Point","coordinates":[31.167108,27.125147]},"properties":{"Name":"كوبري*"}},{"type":"Feature","id":69,"geometry":{"type":"Point","coordinates":[31.180538,27.132602]},"properties":{"Name":"كوبري*"}},{"type":"Feature","id":70,"geometry":{"type":"Point","coordinates":[31.169513,27.135792]},"properties":{"Name":"هدار*"}},{"type":"Feature","id":71,"geometry":{"type":"Point","coordinates":[31.047329,28.979235]},"properties":{"Name":"كوبري*"}},{"type":"Feature","id":72,"geometry":{"type":"Point","coordinates":[31.055017,28.976069]},"properties":{"Name":"كوبري*"}},{"type":"Feature","id":73,"geometry":{"type":"Point","coordinates":[31.230305,29.251994]},"properties":{"Name":"كوبري*"}},{"type":"Feature","id":74,"geometry":{"type":"Point","coordinates":[31.232205,29.25199]},"properties":{"Name":"كوبري*"}},{"type":"Feature","id":75,"geometry":{"type":"Point","coordinates":[31.234932,29.251684]},"properties":{"Name":"تغطية*"}},{"type":"Feature","id":76,"geometry":{"type":"Point","coordinates":[31.23748,29.250036]},"properties":{"Name":"كوبري*"}},{"type":"Feature","id":77,"geometry":{"type":"Point","coordinates":[31.237213,29.251266]},"properties":{"Name":"كوبري*"}},{"type":"Feature","id":78,"geometry":{"type":"Point","coordinates":[31.29097,29.513494]},"properties":{"Name":"كوبري*"}},{"type":"Feature","id":79,"geometry":{"type":"Point","coordinates":[31.305621,29.515696]},"properties":{"Name":"كوبري*"}},{"type":"Feature","id":80,"geometry":{"type":"Point","coordinates":[31.318092,29.520541]},"properties":{"Name":"كوبري*"}},{"type":"Feature","id":81,"geometry":{"type":"Point","coordinates":[31.337657,29.525117]},"properties":{"Name":"كوبري*"}},{"type":"Feature","id":82,"geometry":{"type":"Point","coordinates":[31.340773,29.524082]},"properties":{"Name":"كوبري*"}},{"type":"Feature","id":83,"geometry":{"type":"Point","coordinates":[31.240877,29.382119]},"properties":{"Name":"كوبري*"}},{"type":"Feature","id":84,"geometry":{"type":"Point","coordinates":[31.246184,29.381281]},"properties":{"Name":"كوبري*"}},{"type":"Feature","id":85,"geometry":{"type":"Point","coordinates":[31.252132,29.395453]},"properties":{"Name":"كوبري*"}},{"type":"Feature","id":86,"geometry":{"type":"Point","coordinates":[31.265687,29.389687]},"properties":{"Name":"كوبري*"}},{"type":"Feature","id":87,"geometry":{"type":"Point","coordinates":[31.271775,29.391571]},"properties":{"Name":"كوبري*"}},{"type":"Feature","id":88,"geometry":{"type":"Point","coordinates":[31.307145,29.402984]},"properties":{"Name":"كوبري*"}},{"type":"Feature","id":89,"geometry":{"type":"Point","coordinates":[31.265817,29.49567]},"properties":{"Name":"كوبري*"}},{"type":"Feature","id":90,"geometry":{"type":"Point","coordinates":[31.271872,29.494951]},"properties":{"Name":"كوبري*"}},{"type":"Feature","id":91,"geometry":{"type":"Point","coordinates":[31.275277,29.494788]},"properties":{"Name":"كوبري*"}},{"type":"Feature","id":92,"geometry":{"type":"Point","coordinates":[31.283889,29.492201]},"properties":{"Name":"كوبري*"}},{"type":"Feature","id":93,"geometry":{"type":"Point","coordinates":[31.294238,29.480152]},"properties":{"Name":"كوبري*"}},{"type":"Feature","id":94,"geometry":{"type":"Point","coordinates":[31.313375,29.470587]},"properties":{"Name":"كوبري*"}},{"type":"Feature","id":95,"geometry":{"type":"Point","coordinates":[31.340672,29.467515]},"properties":{"Name":"كوبري*"}},{"type":"Feature","id":96,"geometry":{"type":"Point","coordinates":[30.757243,28.229619]},"properties":{"Name":"كوبري*"}},{"type":"Feature","id":97,"geometry":{"type":"Point","coordinates":[30.759563,28.229211]},"properties":{"Name":"كوبري*"}},{"type":"Feature","id":98,"geometry":{"type":"Point","coordinates":[30.76312,28.230974]},"properties":{"Name":"كوبري*"}},{"type":"Feature","id":99,"geometry":{"type":"Point","coordinates":[30.768048,28.232333]},"properties":{"Name":"كوبري*"}},{"type":"Feature","id":100,"geometry":{"type":"Point","coordinates":[31.772323,26.606701]},"properties":{"Name":"كوبري*"}},{"type":"Feature","id":101,"geometry":{"type":"Point","coordinates":[31.776211,26.608801]},"properties":{"Name":"كوبري*"}},{"type":"Feature","id":102,"geometry":{"type":"Point","coordinates":[31.777095,26.612094]},"properties":{"Name":"كوبري*"}},{"type":"Feature","id":103,"geometry":{"type":"Point","coordinates":[31.388428,29.810877]},"properties":{"Name":"كوبري*"}},{"type":"Feature","id":104,"geometry":{"type":"Point","coordinates":[31.3895,29.817324]},"properties":{"Name":"كوبري*"}},{"type":"Feature","id":105,"geometry":{"type":"Point","coordinates":[31.395727,29.827177]},"properties":{"Name":"تغطية*"}}]}