{"type":"FeatureCollection","features":[{"type":"Feature","id":1,"geometry":{"type":"Point","coordinates":[32.278634,25.820763]},"properties":{"Name":"بحيرة صناعية ب2"}},{"type":"Feature","id":2,"geometry":{"type":"Point","coordinates":[33.271321,25.030082]},"properties":{"Name":"بحيرة صناعية ب 11"}},{"type":"Feature","id":3,"geometry":{"type":"Point","coordinates":[32.947194,25.979864]},"properties":{"Name":"NULL"}},{"type":"Feature","id":4,"geometry":{"type":"Point","coordinates":[32.881921,25.460023]},"properties":{"Name":"بحيرة صناعية ب1 بوادي المدامود"}},{"type":"Feature","id":5,"geometry":{"type":"Point","coordinates":[33.609095,25.011025]},"properties":{"Name":"بحيرة صناعية ب 8"}},{"type":"Feature","id":6,"geometry":{"type":"Point","coordinates":[33.116817,25.08966]},"properties":{"Name":"بحيرة صناعية ب6"}},{"type":"Feature","id":7,"geometry":{"type":"Point","coordinates":[33.192281,25.163443]},"properties":{"Name":"بحيرة صناعية ب5"}},{"type":"Feature","id":8,"geometry":{"type":"Point","coordinates":[33.258234,25.213484]},"properties":{"Name":"بحيرة صناعية ب4"}},{"type":"Feature","id":9,"geometry":{"type":"Point","coordinates":[33.666324,25.031215]},"properties":{"Name":"بحيرة صناعية ب 7"}},{"type":"Feature","id":10,"geometry":{"type":"Point","coordinates":[32.818602,25.790212]},"properties":{"Name":"بحيرة صناعية"}},{"type":"Feature","id":11,"geometry":{"type":"Point","coordinates":[31.975626,25.900016]},"properties":{"Name":"بحيرة صناعية رقم 2"}},{"type":"Feature","id":12,"geometry":{"type":"Point","coordinates":[33.328203,25.012362]},"properties":{"Name":"بحيرة صناعية ب 3"}},{"type":"Feature","id":13,"geometry":{"type":"Point","coordinates":[33.025262,24.995125]},"properties":{"Name":"بحيرة صناعية ب 16"}},{"type":"Feature","id":14,"geometry":{"type":"Point","coordinates":[33.323738,24.989395]},"properties":{"Name":"بحيرة صناعية ب 9"}},{"type":"Feature","id":15,"geometry":{"type":"Point","coordinates":[33.242882,25.018959]},"properties":{"Name":"بحيرة صناعية"}},{"type":"Feature","id":16,"geometry":{"type":"Point","coordinates":[33.211812,25.051982]},"properties":{"Name":"بحيرة صناعية ب 13"}},{"type":"Feature","id":17,"geometry":{"type":"Point","coordinates":[32.845464,25.711502]},"properties":{"Name":"بحيرة صناعية ب2 بوادي بنات بري"}},{"type":"Feature","id":18,"geometry":{"type":"Point","coordinates":[32.207723,25.826417]},"properties":{"Name":"بحيرة صناعية ب1"}},{"type":"Feature","id":19,"geometry":{"type":"Point","coordinates":[33.07518,25.003458]},"properties":{"Name":"بحيرة صناعية ب15"}},{"type":"Feature","id":20,"geometry":{"type":"Point","coordinates":[33.188761,25.076906]},"properties":{"Name":"بحيرة صناعية ب 14"}},{"type":"Feature","id":21,"geometry":{"type":"Point","coordinates":[32.877978,25.743958]},"properties":{"Name":"بحيرة صناعية ب1 بوادي بنات بري"}},{"type":"Feature","id":22,"geometry":{"type":"Point","coordinates":[32.816694,25.553272]},"properties":{"Name":"بحيرة صناعية ب2 بوادي المدامود"}},{"type":"Feature","id":23,"geometry":{"type":"Point","coordinates":[31.933144,25.958331]},"properties":{"Name":"بحيرة صناعية رقم 1"}},{"type":"Feature","id":24,"geometry":{"type":"Point","coordinates":[32.778967,25.62645]},"properties":{"Name":"بحيرة صناعية ب3 بوادي المدامود"}},{"type":"Feature","id":25,"geometry":{"type":"Point","coordinates":[33.420687,24.28115]},"properties":{"Name":"بحيرة صناعية ب 3"}},{"type":"Feature","id":26,"geometry":{"type":"Point","coordinates":[33.512671,24.406054]},"properties":{"Name":"بحيرة صناعية ب1"}},{"type":"Feature","id":27,"geometry":{"type":"Point","coordinates":[33.403316,25.012168]},"properties":{"Name":"بحيرة صناعية ب3"}},{"type":"Feature","id":28,"geometry":{"type":"Point","coordinates":[33.572734,25.125911]},"properties":{"Name":"بحيرة صناعية ب2"}},{"type":"Feature","id":29,"geometry":{"type":"Point","coordinates":[33.723669,25.194738]},"properties":{"Name":"بحيرة صناعية ب1"}},{"type":"Feature","id":30,"geometry":{"type":"Point","coordinates":[32.880273,25.841856]},"properties":{"Name":"بحيرة صناعية"}},{"type":"Feature","id":31,"geometry":{"type":"Point","coordinates":[32.538361,25.4662]},"properties":{"Name":"بحيرة صناعية"}},{"type":"Feature","id":32,"geometry":{"type":"Point","coordinates":[32.533381,25.472573]},"properties":{"Name":"بحيرة صناعية"}},{"type":"Feature","id":33,"geometry":{"type":"Point","coordinates":[32.515263,25.496249]},"properties":{"Name":"بحيرة صناعية"}},{"type":"Feature","id":34,"geometry":{"type":"Point","coordinates":[32.509665,25.532178]},"properties":{"Name":"بحيرة صناعية"}},{"type":"Feature","id":35,"geometry":{"type":"Point","coordinates":[32.51727,25.538474]},"properties":{"Name":"بحيرة صناعية"}},{"type":"Feature","id":36,"geometry":{"type":"Point","coordinates":[31.647166,26.741557]},"properties":{"Name":"L2 بحيرة صناعية"}},{"type":"Feature","id":37,"geometry":{"type":"Point","coordinates":[31.589449,26.758176]},"properties":{"Name":"بحيرة صناعية القرنة"}},{"type":"Feature","id":38,"geometry":{"type":"Point","coordinates":[30.881343,27.95927]},"properties":{"Name":"بحيرة صناعية"}},{"type":"Feature","id":39,"geometry":{"type":"Point","coordinates":[32.539224,25.540801]},"properties":{"Name":"بحيرة صناعية"}},{"type":"Feature","id":40,"geometry":{"type":"Point","coordinates":[32.915094,24.262639]},"properties":{"Name":"بحيرة صناعية ب"}},{"type":"Feature","id":41,"geometry":{"type":"Point","coordinates":[31.423965,29.645113]},"properties":{"Name":"بحيرة صناعية ب5"}},{"type":"Feature","id":42,"geometry":{"type":"Point","coordinates":[30.787127,28.206448]},"properties":{"Name":"حوض تهدئة"}},{"type":"Feature","id":43,"geometry":{"type":"Point","coordinates":[30.789773,28.205689]},"properties":{"Name":"حاجز"}},{"type":"Feature","id":44,"geometry":{"type":"Point","coordinates":[30.788692,28.205137]},"properties":{"Name":"بحيرة صناعية"}},{"type":"Feature","id":45,"geometry":{"type":"Point","coordinates":[30.786627,28.205198]},"properties":{"Name":"بحيرة صناعية"}},{"type":"Feature","id":46,"geometry":{"type":"Point","coordinates":[31.378432,29.458615]},"properties":{"Name":"حوض تهدئة"}},{"type":"Feature","id":47,"geometry":{"type":"Point","coordinates":[31.39909,29.433119]},"properties":{"Name":"بحيرة صناعية ب4"}},{"type":"Feature","id":48,"geometry":{"type":"Point","coordinates":[31.413986,29.42779]},"properties":{"Name":"بحيرة صناعية ب3"}},{"type":"Feature","id":49,"geometry":{"type":"Point","coordinates":[31.454001,29.450895]},"properties":{"Name":"بحيرة صناعية ب2"}},{"type":"Feature","id":50,"geometry":{"type":"Point","coordinates":[31.036087,28.677168]},"properties":{"Name":"حوض تهدئة زاوية الجدامي"}},{"type":"Feature","id":51,"geometry":{"type":"Point","coordinates":[31.313483,29.402481]},"properties":{"Name":"بحيرة صناعية ب4"}},{"type":"Feature","id":52,"geometry":{"type":"Point","coordinates":[31.347889,29.390467]},"properties":{"Name":"بحيرة صناعية ب3"}},{"type":"Feature","id":53,"geometry":{"type":"Point","coordinates":[31.391403,29.376938]},"properties":{"Name":"بحيرة صناعية ب2"}},{"type":"Feature","id":54,"geometry":{"type":"Point","coordinates":[31.379491,29.801267]},"properties":{"Name":"بحيرة صناعية ب5"}},{"type":"Feature","id":55,"geometry":{"type":"Point","coordinates":[31.345089,29.522225]},"properties":{"Name":"حاجز ترابي ح2"}},{"type":"Feature","id":56,"geometry":{"type":"Point","coordinates":[31.430021,29.522412]},"properties":{"Name":"حاجز ترابي ح1"}},{"type":"Feature","id":57,"geometry":{"type":"Point","coordinates":[31.440618,29.504569]},"properties":{"Name":"بحيرة صناعية ب3"}},{"type":"Feature","id":58,"geometry":{"type":"Point","coordinates":[31.424386,29.597872]},"properties":{"Name":"حاجز ترابي ح3"}},{"type":"Feature","id":59,"geometry":{"type":"Point","coordinates":[31.427183,29.620425]},"properties":{"Name":"حاجز ترابي ح2"}},{"type":"Feature","id":60,"geometry":{"type":"Point","coordinates":[31.168814,28.897744]},"properties":{"Name":"حاجز ترابي ح3"}},{"type":"Feature","id":61,"geometry":{"type":"Point","coordinates":[31.199188,28.920721]},"properties":{"Name":"حاجز ترابي ح2"}},{"type":"Feature","id":62,"geometry":{"type":"Point","coordinates":[31.17056,28.834382]},"properties":{"Name":"حاجز ترابي ح1"}},{"type":"Feature","id":63,"geometry":{"type":"Point","coordinates":[31.247326,28.708266]},"properties":{"Name":"بحيرة صناعية ب8"}},{"type":"Feature","id":64,"geometry":{"type":"Point","coordinates":[31.630573,28.833977]},"properties":{"Name":"بحيرة صناعية ب7"}},{"type":"Feature","id":65,"geometry":{"type":"Point","coordinates":[31.617616,28.846381]},"properties":{"Name":"بحيرة صناعية ب6"}},{"type":"Feature","id":66,"geometry":{"type":"Point","coordinates":[31.23338,28.755282]},"properties":{"Name":"بحيرة صناعية ب5"}},{"type":"Feature","id":67,"geometry":{"type":"Point","coordinates":[31.593762,29.049508]},"properties":{"Name":"بحيرة صناعية ب4"}},{"type":"Feature","id":68,"geometry":{"type":"Point","coordinates":[31.236893,29.29348]},"properties":{"Name":"حاجز ترابي ح5"}},{"type":"Feature","id":69,"geometry":{"type":"Point","coordinates":[31.30286,29.271702]},"properties":{"Name":"حاجز"}},{"type":"Feature","id":70,"geometry":{"type":"Point","coordinates":[31.366948,29.22115]},"properties":{"Name":"حاجز ترابي ح2"}},{"type":"Feature","id":71,"geometry":{"type":"Point","coordinates":[31.372055,29.236208]},"properties":{"Name":"بحيرة صناعية ب7"}},{"type":"Feature","id":72,"geometry":{"type":"Point","coordinates":[30.879021,28.467758]},"properties":{"Name":"حاجز ترابي قرية الشرفا"}},{"type":"Feature","id":73,"geometry":{"type":"Point","coordinates":[30.964089,28.493316]},"properties":{"Name":"حاجز توجيه قرية بني خالد"}},{"type":"Feature","id":74,"geometry":{"type":"Point","coordinates":[30.92907,28.620023]},"properties":{"Name":"حاجز ترابي"}},{"type":"Feature","id":75,"geometry":{"type":"Point","coordinates":[31.645833,26.901667]},"properties":{"Name":"بحيرة صناعية"}},{"type":"Feature","id":76,"geometry":{"type":"Point","coordinates":[31.226784,27.326237]},"properties":{"Name":"NULL"}},{"type":"Feature","id":77,"geometry":{"type":"Point","coordinates":[31.356604,26.786502]},"properties":{"Name":"بحيرة صناعية"}},{"type":"Feature","id":78,"geometry":{"type":"Point","coordinates":[32.518748,25.541312]},"properties":{"Name":"بحيرة صناعية"}},{"type":"Feature","id":79,"geometry":{"type":"Point","coordinates":[31.393021,29.365607]},"properties":{"Name":"بحيرة صناعية ب1"}},{"type":"Feature","id":80,"geometry":{"type":"Point","coordinates":[31.178652,27.378658]},"properties":{"Name":"بحيره"}},{"type":"Feature","id":81,"geometry":{"type":"Point","coordinates":[30.875608,27.944219]},"properties":{"Name":"بحيره صناعيه"}},{"type":"Feature","id":82,"geometry":{"type":"Point","coordinates":[32.527295,26.225437]},"properties":{"Name":"بحيرة صناعية"}},{"type":"Feature","id":83,"geometry":{"type":"Point","coordinates":[31.226727,29.006727]},"properties":{"Name":"بحيرة صناعية"}},{"type":"Feature","id":84,"geometry":{"type":"Point","coordinates":[31.012801,28.852271]},"properties":{"Name":"بحيرة صناعية"}},{"type":"Feature","id":85,"geometry":{"type":"Point","coordinates":[30.961579,28.870549]},"properties":{"Name":"بحيرة صناعية"}},{"type":"Feature","id":86,"geometry":{"type":"Point","coordinates":[30.848497,28.405911]},"properties":{"Name":"بحيرة صناعية"}},{"type":"Feature","id":87,"geometry":{"type":"Point","coordinates":[30.861489,28.400554]},"properties":{"Name":"بحيرة صناعية"}},{"type":"Feature","id":88,"geometry":{"type":"Point","coordinates":[30.870963,28.392801]},"properties":{"Name":"بحيرة صناعية"}},{"type":"Feature","id":89,"geometry":{"type":"Point","coordinates":[31.249868,29.224034]},"properties":{"Name":"بحيرة صناعية"}},{"type":"Feature","id":90,"geometry":{"type":"Point","coordinates":[31.274803,29.242338]},"properties":{"Name":"بحيرة صناعية"}},{"type":"Feature","id":91,"geometry":{"type":"Point","coordinates":[32.632787,25.767038]},"properties":{"Name":"بحيرة صناعية"}},{"type":"Feature","id":92,"geometry":{"type":"Point","coordinates":[30.835878,29.116158]},"properties":{"Name":"بحيرة صناعية"}},{"type":"Feature","id":93,"geometry":{"type":"Point","coordinates":[30.895953,29.244286]},"properties":{"Name":"بحيرة صناعية"}},{"type":"Feature","id":94,"geometry":{"type":"Point","coordinates":[31.382369,29.626764]},"properties":{"Name":"بحيرة صناعية ب4"}},{"type":"Feature","id":95,"geometry":{"type":"Point","coordinates":[31.360655,29.467866]},"properties":{"Name":"حاجز ترابي ح1"}},{"type":"Feature","id":96,"geometry":{"type":"Point","coordinates":[31.032434,28.678759]},"properties":{"Name":"حاجز"}},{"type":"Feature","id":97,"geometry":{"type":"Point","coordinates":[31.079983,28.967548]},"properties":{"Name":"بحيرة صناعية ب1"}},{"type":"Feature","id":98,"geometry":{"type":"Point","coordinates":[31.072709,28.971724]},"properties":{"Name":"حاجز"}},{"type":"Feature","id":99,"geometry":{"type":"Point","coordinates":[31.394117,29.823643]},"properties":{"Name":"بحيرة صناعية ب3"}},{"type":"Feature","id":100,"geometry":{"type":"Point","coordinates":[31.79788,26.622842]},"properties":{"Name":"قناة صناعية فرعية A2"}},{"type":"Feature","id":101,"geometry":{"type":"Point","coordinates":[31.772383,26.606745]},"properties":{"Name":"قناة صناعية"}},{"type":"Feature","id":102,"geometry":{"type":"Point","coordinates":[31.801443,26.618862]},"properties":{"Name":"قناة صناعية  فرعية A1"}},{"type":"Feature","id":103,"geometry":{"type":"Point","coordinates":[30.915133,28.743297]},"properties":{"Name":"قناة صناعية"}},{"type":"Feature","id":104,"geometry":{"type":"Point","coordinates":[30.916089,29.257836]},"properties":{"Name":"قناة صناعية"}},{"type":"Feature","id":105,"geometry":{"type":"Point","coordinates":[30.828108,29.117483]},"properties":{"Name":"قناة صناعية"}},{"type":"Feature","id":106,"geometry":{"type":"Point","coordinates":[30.897411,29.246139]},"properties":{"Name":"قناة صناعية"}},{"type":"Feature","id":107,"geometry":{"type":"Point","coordinates":[30.768865,28.232404]},"properties":{"Name":"بحيرة صناعية"}},{"type":"Feature","id":108,"geometry":{"type":"Point","coordinates":[31.282474,29.395013]},"properties":{"Name":"مخر سيل"}},{"type":"Feature","id":109,"geometry":{"type":"Point","coordinates":[31.332032,29.524996]},"properties":{"Name":"حاجز توجيه"}},{"type":"Feature","id":110,"geometry":{"type":"Point","coordinates":[31.234313,29.251832]},"properties":{"Name":"بحيرة صناعية ب3"}},{"type":"Feature","id":111,"geometry":{"type":"Point","coordinates":[31.055071,28.976125]},"properties":{"Name":"بحيرة صناعية ب2"}},{"type":"Feature","id":112,"geometry":{"type":"Point","coordinates":[31.178389,27.132217]},"properties":{"Name":"مخر سيل بوادي درنكة القديمة"}},{"type":"Feature","id":113,"geometry":{"type":"Point","coordinates":[31.1686,27.124342]},"properties":{"Name":"مخر سيل بوادي درنكة الجديدة"}},{"type":"Feature","id":114,"geometry":{"type":"Point","coordinates":[31.354298,29.559503]},"properties":{"Name":"مخر سيل المعصرة"}},{"type":"Feature","id":115,"geometry":{"type":"Point","coordinates":[31.382936,29.713426]},"properties":{"Name":"سد وادي متين"}},{"type":"Feature","id":116,"geometry":{"type":"Point","coordinates":[31.34998,29.807437]},"properties":{"Name":"مخر سيل طما فيوم"}},{"type":"Feature","id":117,"geometry":{"type":"Point","coordinates":[31.312116,29.883435]},"properties":{"Name":"مخر سيل ابو صالح"}},{"type":"Feature","id":118,"geometry":{"type":"Point","coordinates":[30.932209,29.183109]},"properties":{"Name":"مخر سيل وادي غراب"}},{"type":"Feature","id":119,"geometry":{"type":"Point","coordinates":[31.209529,29.181092]},"properties":{"Name":"سد وادي فقيرة"}},{"type":"Feature","id":120,"geometry":{"type":"Point","coordinates":[30.845869,28.407637]},"properties":{"Name":"مخر سيل"}},{"type":"Feature","id":121,"geometry":{"type":"Point","coordinates":[30.921028,29.256609]},"properties":{"Name":"مخر سيل صناعي"}},{"type":"Feature","id":122,"geometry":{"type":"Point","coordinates":[30.896154,29.244729]},"properties":{"Name":"مخر سيل صناعي"}},{"type":"Feature","id":123,"geometry":{"type":"Point","coordinates":[31.076338,29.005473]},"properties":{"Name":"مخر سيل عزبة مغيب"}},{"type":"Feature","id":124,"geometry":{"type":"Point","coordinates":[31.035965,28.932751]},"properties":{"Name":"مخر سيل عزبة محمود السيد"}},{"type":"Feature","id":125,"geometry":{"type":"Point","coordinates":[31.140176,29.069965]},"properties":{"Name":"مخر سيل عزبة علي فراج"}},{"type":"Feature","id":126,"geometry":{"type":"Point","coordinates":[31.283972,29.492167]},"properties":{"Name":"مخر سيل"}},{"type":"Feature","id":127,"geometry":{"type":"Point","coordinates":[31.076333,29.006191]},"properties":{"Name":"بحيرة*"}},{"type":"Feature","id":128,"geometry":{"type":"Point","coordinates":[31.082545,29.004363]},"properties":{"Name":"بحيرة*"}},{"type":"Feature","id":129,"geometry":{"type":"Point","coordinates":[31.356097,29.803395]},"properties":{"Name":"مخر سيل*"}},{"type":"Feature","id":130,"geometry":{"type":"Point","coordinates":[31.225549,27.345105]},"properties":{"Name":"بحيرة*"}},{"type":"Feature","id":131,"geometry":{"type":"Point","coordinates":[32.816421,25.793411]},"properties":{"Name":"بحيرة*"}},{"type":"Feature","id":132,"geometry":{"type":"Point","coordinates":[30.901821,27.812648]},"properties":{"Name":"بحيرة*"}}]}